<?xml version="1.0" encoding="UTF-8"?>
<gpx creator="Garmin Connect" version="1.1"
  xsi:schemaLocation="http://www.topografix.com/GPX/1/1 http://www.topografix.com/GPX/11.xsd"
  xmlns:ns3="http://www.garmin.com/xmlschemas/TrackPointExtension/v1"
  xmlns="http://www.topografix.com/GPX/1/1"
  xmlns:xsi="http://www.w3.org/2001/XMLSchema-instance" xmlns:ns2="http://www.garmin.com/xmlschemas/GpxExtensions/v3">
  <metadata>
    <name>DUT 2026 - 5km</name>
    <link href="connect.garmin.com">
      <text>Garmin Connect</text>
    </link>
    <time>2026-02-16T13:06:17.000Z</time>
  </metadata>
  <wpt lat="11.99398251831593" lon="108.44694125348069">
    <ele>0.0</ele>
    <name>Checkpoint 501</name>
    <type>CHECKPOINT</type>
  </wpt>
  <trk>
    <name>DUT 2026 - 5km</name>
    <trkseg>
      <trkpt lat="11.977739883586764" lon="108.44781995750964">
        <ele>1519.19</ele>
      </trkpt>
      <trkpt lat="11.977779949083924" lon="108.44802011735737">
        <ele>1519.4</ele>
      </trkpt>
      <trkpt lat="11.977819930762053" lon="108.44821994192898">
        <ele>1519.85</ele>
      </trkpt>
      <trkpt lat="11.977814985439181" lon="108.44847517088056">
        <ele>1520.51</ele>
      </trkpt>
      <trkpt lat="11.977809956297278" lon="108.44872998073697">
        <ele>1521.15</ele>
      </trkpt>
      <trkpt lat="11.977804927155375" lon="108.44898520968854">
        <ele>1521.8</ele>
      </trkpt>
      <trkpt lat="11.977799981832504" lon="108.44923993572593">
        <ele>1522.34</ele>
      </trkpt>
      <trkpt lat="11.977776596322656" lon="108.44945350661874">
        <ele>1522.76</ele>
      </trkpt>
      <trkpt lat="11.977753210812807" lon="108.44966699369252">
        <ele>1523.02</ele>
      </trkpt>
      <trkpt lat="11.977729992941022" lon="108.4498799778521">
        <ele>1523.05</ele>
      </trkpt>
      <trkpt lat="11.977719934657216" lon="108.4501252323389">
        <ele>1523.0</ele>
      </trkpt>
      <trkpt lat="11.977709960192442" lon="108.45036998391151">
        <ele>1522.98</ele>
      </trkpt>
      <trkpt lat="11.977753294631839" lon="108.45061347819865">
        <ele>1522.81</ele>
      </trkpt>
      <trkpt lat="11.977796712890267" lon="108.45085697248578">
        <ele>1522.47</ele>
      </trkpt>
      <trkpt lat="11.977839963510633" lon="108.45109996385872">
        <ele>1522.1</ele>
      </trkpt>
      <trkpt lat="11.978052193298936" lon="108.45106677152216">
        <ele>1521.72</ele>
      </trkpt>
      <trkpt lat="11.978264339268208" lon="108.45103366300464">
        <ele>1521.14</ele>
      </trkpt>
      <trkpt lat="11.97847992181778" lon="108.45099996775389">
        <ele>1520.39</ele>
      </trkpt>
      <trkpt lat="11.978719979524612" lon="108.45099996775389">
        <ele>1519.5</ele>
      </trkpt>
      <trkpt lat="11.97896858677268" lon="108.45101488754153">
        <ele>1518.58</ele>
      </trkpt>
      <trkpt lat="11.979219960048795" lon="108.45102997496724">
        <ele>1517.51</ele>
      </trkpt>
      <trkpt lat="11.979459933936596" lon="108.45102997496724">
        <ele>1516.18</ele>
      </trkpt>
      <trkpt lat="11.979579962790012" lon="108.45098999328911">
        <ele>1514.83</ele>
      </trkpt>
      <trkpt lat="11.979764364659786" lon="108.4508504346013">
        <ele>1513.33</ele>
      </trkpt>
      <trkpt lat="11.979949939996004" lon="108.45070995390415">
        <ele>1511.85</ele>
      </trkpt>
      <trkpt lat="11.98004993610084" lon="108.45056997612119">
        <ele>1510.49</ele>
      </trkpt>
      <trkpt lat="11.980079943314195" lon="108.45046998001635">
        <ele>1509.13</ele>
      </trkpt>
      <trkpt lat="11.980090001598" lon="108.45021475106478">
        <ele>1507.55</ele>
      </trkpt>
      <trkpt lat="11.980099976062775" lon="108.44995994120836">
        <ele>1505.82</ele>
      </trkpt>
      <trkpt lat="11.980129983276129" lon="108.44985994510353">
        <ele>1504.49</ele>
      </trkpt>
      <trkpt lat="11.980199972167611" lon="108.44975994899869">
        <ele>1503.26</ele>
      </trkpt>
      <trkpt lat="11.98021899908781" lon="108.44974695704877">
        <ele>1502.09</ele>
      </trkpt>
      <trkpt lat="11.980308936908841" lon="108.44970596954226">
        <ele>1500.85</ele>
      </trkpt>
      <trkpt lat="11.980574978515506" lon="108.44971091486514">
        <ele>1499.72</ele>
      </trkpt>
      <trkpt lat="11.98084395378828" lon="108.44971594400704">
        <ele>1498.92</ele>
      </trkpt>
      <trkpt lat="11.981090968474746" lon="108.44974092207849">
        <ele>1498.22</ele>
      </trkpt>
      <trkpt lat="11.981231952086091" lon="108.44973396509886">
        <ele>1497.65</ele>
      </trkpt>
      <trkpt lat="11.981386933475733" lon="108.44969297759235">
        <ele>1497.21</ele>
      </trkpt>
      <trkpt lat="11.981479972600937" lon="108.44974997453392">
        <ele>1496.87</ele>
      </trkpt>
      <trkpt lat="11.98164920322597" lon="108.44981962814927">
        <ele>1496.62</ele>
      </trkpt>
      <trkpt lat="11.981819942593575" lon="108.44988995231688">
        <ele>1496.53</ele>
      </trkpt>
      <trkpt lat="11.981999315321445" lon="108.45001618377864">
        <ele>1496.68</ele>
      </trkpt>
      <trkpt lat="11.982178771868348" lon="108.4501424152404">
        <ele>1496.66</ele>
      </trkpt>
      <trkpt lat="11.982359988614917" lon="108.45026998780668">
        <ele>1496.57</ele>
      </trkpt>
      <trkpt lat="11.9824299775064" lon="108.45028993673623">
        <ele>1496.71</ele>
      </trkpt>
      <trkpt lat="11.982729965820909" lon="108.45022992230952">
        <ele>1497.04</ele>
      </trkpt>
      <trkpt lat="11.982894083485007" lon="108.45023989677429">
        <ele>1497.3</ele>
      </trkpt>
      <trkpt lat="11.983059961348772" lon="108.4502499550581">
        <ele>1497.6</ele>
      </trkpt>
      <trkpt lat="11.983238998800516" lon="108.45021517015994">
        <ele>1498.07</ele>
      </trkpt>
      <trkpt lat="11.98341996408999" lon="108.45017996616662">
        <ele>1498.6</ele>
      </trkpt>
      <trkpt lat="11.983459945768118" lon="108.45018994063139">
        <ele>1499.05</ele>
      </trkpt>
      <trkpt lat="11.983642922714353" lon="108.45019991509616">
        <ele>1499.54</ele>
      </trkpt>
      <trkpt lat="11.98382799513638" lon="108.45020997337997">
        <ele>1500.1</ele>
      </trkpt>
      <trkpt lat="11.984010469168425" lon="108.45018063671887">
        <ele>1500.81</ele>
      </trkpt>
      <trkpt lat="11.98419495485723" lon="108.45015096478164">
        <ele>1501.55</ele>
      </trkpt>
      <trkpt lat="11.98435664176941" lon="108.4500977396965">
        <ele>1502.35</ele>
      </trkpt>
      <trkpt lat="11.98451992124319" lon="108.45004392787814">
        <ele>1503.13</ele>
      </trkpt>
      <trkpt lat="11.98472997173667" lon="108.44988794066012">
        <ele>1504.12</ele>
      </trkpt>
      <trkpt lat="11.984950918704271" lon="108.44971694983542">
        <ele>1504.83</ele>
      </trkpt>
      <trkpt lat="11.985170943662524" lon="108.44960899092257">
        <ele>1505.51</ele>
      </trkpt>
      <trkpt lat="11.9853759650141" lon="108.44946993514895">
        <ele>1506.2</ele>
      </trkpt>
      <trkpt lat="11.985574951395392" lon="108.44930891878903">
        <ele>1507.18</ele>
      </trkpt>
      <trkpt lat="11.985774943605065" lon="108.44914798624814">
        <ele>1508.11</ele>
      </trkpt>
      <trkpt lat="11.985973929986358" lon="108.44900297932327">
        <ele>1509.19</ele>
      </trkpt>
      <trkpt lat="11.986183980479836" lon="108.44887993298471">
        <ele>1510.26</ele>
      </trkpt>
      <trkpt lat="11.986409956589341" lon="108.44880994409323">
        <ele>1511.27</ele>
      </trkpt>
      <trkpt lat="11.986645990982652" lon="108.44876694492996">
        <ele>1512.03</ele>
      </trkpt>
      <trkpt lat="11.986886970698833" lon="108.44871296547353">
        <ele>1512.7</ele>
      </trkpt>
      <trkpt lat="11.987127950415015" lon="108.44865999184549">
        <ele>1513.48</ele>
      </trkpt>
      <trkpt lat="11.987358955666423" lon="108.44862193800509">
        <ele>1514.42</ele>
      </trkpt>
      <trkpt lat="11.987553918734193" lon="108.44855194911361">
        <ele>1515.61</ele>
      </trkpt>
      <trkpt lat="11.987689957022667" lon="108.44841297715902">
        <ele>1516.86</ele>
      </trkpt>
      <trkpt lat="11.987825995311141" lon="108.44832697883248">
        <ele>1517.93</ele>
      </trkpt>
      <trkpt lat="11.987993968650699" lon="108.44830594025552">
        <ele>1518.91</ele>
      </trkpt>
      <trkpt lat="11.988161941990256" lon="108.44828993082047">
        <ele>1519.88</ele>
      </trkpt>
      <trkpt lat="11.988329999148846" lon="108.44829998910427">
        <ele>1520.94</ele>
      </trkpt>
      <trkpt lat="11.988502917811275" lon="108.44832194969058">
        <ele>1522.01</ele>
      </trkpt>
      <trkpt lat="11.988686984404922" lon="108.44834298826754">
        <ele>1523.09</ele>
      </trkpt>
      <trkpt lat="11.988880941644311" lon="108.44834298826754">
        <ele>1524.12</ele>
      </trkpt>
      <trkpt lat="11.989074982702732" lon="108.44833292998374">
        <ele>1525.05</ele>
      </trkpt>
      <trkpt lat="11.98928494937718" lon="108.44826797023416">
        <ele>1525.76</ele>
      </trkpt>
      <trkpt lat="11.989468932151794" lon="108.44812899827957">
        <ele>1526.45</ele>
      </trkpt>
      <trkpt lat="11.989562977105379" lon="108.44793596304953">
        <ele>1527.18</ele>
      </trkpt>
      <trkpt lat="11.989678982645273" lon="108.44778492115438">
        <ele>1527.79</ele>
      </trkpt>
      <trkpt lat="11.98984695598483" lon="108.44773697666824">
        <ele>1528.13</ele>
      </trkpt>
      <trkpt lat="11.98999891988933" lon="108.44762398861349">
        <ele>1528.62</ele>
      </trkpt>
      <trkpt lat="11.990150967612863" lon="108.44750597141683">
        <ele>1528.76</ele>
      </trkpt>
      <trkpt lat="11.990281976759434" lon="108.44735099002719">
        <ele>1528.96</ele>
      </trkpt>
      <trkpt lat="11.990412985906005" lon="108.44717899337411">
        <ele>1528.89</ele>
      </trkpt>
      <trkpt lat="11.990544917061925" lon="108.44698595814407">
        <ele>1528.78</ele>
      </trkpt>
      <trkpt lat="11.990675926208496" lon="108.44679292291403">
        <ele>1528.69</ele>
      </trkpt>
      <trkpt lat="11.99081196449697" lon="108.44661095179617">
        <ele>1528.6</ele>
      </trkpt>
      <trkpt lat="11.990948924794793" lon="108.44645999372005">
        <ele>1528.4</ele>
      </trkpt>
      <trkpt lat="11.991116981953382" lon="108.44645999372005">
        <ele>1527.96</ele>
      </trkpt>
      <trkpt lat="11.991336923092604" lon="108.44651891849935">
        <ele>1527.43</ele>
      </trkpt>
      <trkpt lat="11.99154194444418" lon="108.44664799980819">
        <ele>1526.77</ele>
      </trkpt>
      <trkpt lat="11.991703966632485" lon="108.44680398702621">
        <ele>1526.08</ele>
      </trkpt>
      <trkpt lat="11.991708995774388" lon="108.44702392816544">
        <ele>1525.5</ele>
      </trkpt>
      <trkpt lat="11.991694997996092" lon="108.44705997034907">
        <ele>1525.31</ele>
      </trkpt>
      <trkpt lat="11.991617968305945" lon="108.44722341746092">
        <ele>1525.15</ele>
      </trkpt>
      <trkpt lat="11.991540938615799" lon="108.4473869483918">
        <ele>1525.15</ele>
      </trkpt>
      <trkpt lat="11.991460975259542" lon="108.44765491783619">
        <ele>1525.55</ele>
      </trkpt>
      <trkpt lat="11.99143499135971" lon="108.44784392975271">
        <ele>1526.32</ele>
      </trkpt>
      <trkpt lat="11.991529958322644" lon="108.44796697609127">
        <ele>1527.08</ele>
      </trkpt>
      <trkpt lat="11.991723999381065" lon="108.44798591919243">
        <ele>1527.77</ele>
      </trkpt>
      <trkpt lat="11.991860959678888" lon="108.44805096276104">
        <ele>1528.78</ele>
      </trkpt>
      <trkpt lat="11.992037985473871" lon="108.44806688837707">
        <ele>1529.9</ele>
      </trkpt>
      <trkpt lat="11.992216939106584" lon="108.44808298163116">
        <ele>1531.13</ele>
      </trkpt>
      <trkpt lat="11.99240393936634" lon="108.44809597358108">
        <ele>1532.46</ele>
      </trkpt>
      <trkpt lat="11.992555735632777" lon="108.44804224558175">
        <ele>1533.99</ele>
      </trkpt>
      <trkpt lat="11.992708956822753" lon="108.4479879308492">
        <ele>1535.5</ele>
      </trkpt>
      <trkpt lat="11.99288765899837" lon="108.44792179763317">
        <ele>1537.07</ele>
      </trkpt>
      <trkpt lat="11.99306795373559" lon="108.4478549938649">
        <ele>1538.58</ele>
      </trkpt>
      <trkpt lat="11.993299964815378" lon="108.4477009344846">
        <ele>1540.16</ele>
      </trkpt>
      <trkpt lat="11.993373977020383" lon="108.44758694060147">
        <ele>1541.49</ele>
      </trkpt>
      <trkpt lat="11.993393925949931" lon="108.44757797196507">
        <ele>1542.65</ele>
      </trkpt>
      <trkpt lat="11.993443965911865" lon="108.44757394865155">
        <ele>1543.72</ele>
      </trkpt>
      <trkpt lat="11.993493922054768" lon="108.44754796475172">
        <ele>1544.63</ele>
      </trkpt>
      <trkpt lat="11.993531975895166" lon="108.44751896336675">
        <ele>1545.38</ele>
      </trkpt>
      <trkpt lat="11.993550918996334" lon="108.44748895615339">
        <ele>1546.05</ele>
      </trkpt>
      <trkpt lat="11.99358293786645" lon="108.44742994755507">
        <ele>1546.57</ele>
      </trkpt>
      <trkpt lat="11.993594923987985" lon="108.4473639819771">
        <ele>1547.02</ele>
      </trkpt>
      <trkpt lat="11.993614956736565" lon="108.44729692675173">
        <ele>1547.33</ele>
      </trkpt>
      <trkpt lat="11.993653932586312" lon="108.44723599031568">
        <ele>1547.5</ele>
      </trkpt>
      <trkpt lat="11.993715958669782" lon="108.44716298393905">
        <ele>1547.52</ele>
      </trkpt>
      <trkpt lat="11.993764992803335" lon="108.44711495563388">
        <ele>1547.43</ele>
      </trkpt>
      <trkpt lat="11.993802962824702" lon="108.4470639936626">
        <ele>1547.26</ele>
      </trkpt>
      <trkpt lat="11.993820983916521" lon="108.44699995592237">
        <ele>1547.06</ele>
      </trkpt>
      <trkpt lat="11.99384294450283" lon="108.446895936504">
        <ele>1546.86</ele>
      </trkpt>
      <trkpt lat="11.993835987523198" lon="108.44685595482588">
        <ele>1546.58</ele>
      </trkpt>
      <trkpt lat="11.99384093284607" lon="108.44680197536945">
        <ele>1546.21</ele>
      </trkpt>
      <trkpt lat="11.993890972808003" lon="108.44673198647797">
        <ele>1545.78</ele>
      </trkpt>
      <trkpt lat="11.993979988619685" lon="108.44671899452806">
        <ele>1545.19</ele>
      </trkpt>
      <trkpt lat="11.994008990004659" lon="108.44679493457079">
        <ele>1544.35</ele>
      </trkpt>
      <trkpt lat="11.994025921449065" lon="108.44684396870434">
        <ele>1543.52</ele>
      </trkpt>
      <trkpt lat="11.994011923670769" lon="108.44690691679716">
        <ele>1542.65</ele>
      </trkpt>
      <trkpt lat="11.993982503190637" lon="108.44694119878113">
        <ele>1541.88</ele>
      </trkpt>
      <trkpt lat="11.993957944214344" lon="108.44696994870901">
        <ele>1541.09</ele>
      </trkpt>
      <trkpt lat="11.993951993063092" lon="108.4469479881227">
        <ele>1540.27</ele>
      </trkpt>
      <trkpt lat="11.993940928950906" lon="108.44697698950768">
        <ele>1539.38</ele>
      </trkpt>
      <trkpt lat="11.9939239975065" lon="108.44702795147896">
        <ele>1538.45</ele>
      </trkpt>
      <trkpt lat="11.993907988071442" lon="108.44708494842052">
        <ele>1537.48</ele>
      </trkpt>
      <trkpt lat="11.99390396475792" lon="108.44714093953371">
        <ele>1536.49</ele>
      </trkpt>
      <trkpt lat="11.993908993899822" lon="108.44724093563855">
        <ele>1535.4</ele>
      </trkpt>
      <trkpt lat="11.99388493783772" lon="108.44724495895207">
        <ele>1534.44</ele>
      </trkpt>
      <trkpt lat="11.993899941444397" lon="108.44728795811534">
        <ele>1533.32</ele>
      </trkpt>
      <trkpt lat="11.993898935616016" lon="108.44734193757176">
        <ele>1532.22</ele>
      </trkpt>
      <trkpt lat="11.993911927565932" lon="108.44739398919046">
        <ele>1531.11</ele>
      </trkpt>
      <trkpt lat="11.993921985849738" lon="108.44744796864688">
        <ele>1530.02</ele>
      </trkpt>
      <trkpt lat="11.993920980021358" lon="108.44750295393169">
        <ele>1529.0</ele>
      </trkpt>
      <trkpt lat="11.993919974192977" lon="108.447553999722">
        <ele>1528.02</ele>
      </trkpt>
      <trkpt lat="11.993939923122525" lon="108.4475959930569">
        <ele>1527.03</ele>
      </trkpt>
      <trkpt lat="11.994000943377614" lon="108.44760194420815">
        <ele>1525.99</ele>
      </trkpt>
      <trkpt lat="11.994087947532535" lon="108.44764695502818">
        <ele>1525.04</ele>
      </trkpt>
      <trkpt lat="11.99414393864572" lon="108.44762499444187">
        <ele>1524.31</ele>
      </trkpt>
      <trkpt lat="11.994168916717172" lon="108.44756196253002">
        <ele>1523.86</ele>
      </trkpt>
      <trkpt lat="11.994164977222681" lon="108.44755198806524">
        <ele>1523.46</ele>
      </trkpt>
      <trkpt lat="11.994151985272765" lon="108.44755693338811">
        <ele>1523.18</ele>
      </trkpt>
      <trkpt lat="11.99418492615223" lon="108.44754695892334">
        <ele>1523.06</ele>
      </trkpt>
      <trkpt lat="11.994240917265415" lon="108.44751393422484">
        <ele>1523.14</ele>
      </trkpt>
      <trkpt lat="11.99424996972084" lon="108.44750295393169">
        <ele>1523.35</ele>
      </trkpt>
      <trkpt lat="11.994256926700473" lon="108.44751192256808">
        <ele>1523.67</ele>
      </trkpt>
      <trkpt lat="11.99427293613553" lon="108.44755894504488">
        <ele>1524.09</ele>
      </trkpt>
      <trkpt lat="11.994323981925845" lon="108.44761191867292">
        <ele>1524.71</ele>
      </trkpt>
      <trkpt lat="11.994366981089115" lon="108.44762499444187">
        <ele>1525.64</ele>
      </trkpt>
      <trkpt lat="11.994435964152217" lon="108.4476129245013">
        <ele>1526.85</ele>
      </trkpt>
      <trkpt lat="11.99448592029512" lon="108.44761393032968">
        <ele>1528.16</ele>
      </trkpt>
      <trkpt lat="11.994494972750545" lon="108.44761493615806">
        <ele>1529.53</ele>
      </trkpt>
      <trkpt lat="11.994555993005633" lon="108.44767193309963">
        <ele>1531.08</ele>
      </trkpt>
      <trkpt lat="11.99459195137024" lon="108.44768794253469">
        <ele>1532.78</ele>
      </trkpt>
      <trkpt lat="11.99461399577558" lon="108.44769699499011">
        <ele>1534.59</ele>
      </trkpt>
      <trkpt lat="11.994639979675412" lon="108.44769297167659">
        <ele>1536.57</ele>
      </trkpt>
      <trkpt lat="11.99469999410212" lon="108.44762792810798">
        <ele>1538.87</ele>
      </trkpt>
      <trkpt lat="11.994752967730165" lon="108.4475679975003">
        <ele>1541.13</ele>
      </trkpt>
      <trkpt lat="11.994802923873067" lon="108.447479987517">
        <ele>1543.46</ele>
      </trkpt>
      <trkpt lat="11.994857992976904" lon="108.44741192646325">
        <ele>1545.77</ele>
      </trkpt>
      <trkpt lat="11.994918929412961" lon="108.447339925915">
        <ele>1548.03</ele>
      </trkpt>
      <trkpt lat="11.994981961324811" lon="108.44725996255875">
        <ele>1550.27</ele>
      </trkpt>
      <trkpt lat="11.994985984638333" lon="108.44719399698079">
        <ele>1552.39</ele>
      </trkpt>
      <trkpt lat="11.994993947446346" lon="108.44711596146226">
        <ele>1554.54</ele>
      </trkpt>
      <trkpt lat="11.995011968538165" lon="108.44701395370066">
        <ele>1556.64</ele>
      </trkpt>
      <trkpt lat="11.995031917467713" lon="108.44695192761719">
        <ele>1558.63</ele>
      </trkpt>
      <trkpt lat="11.995038958266377" lon="108.446895936504">
        <ele>1560.53</ele>
      </trkpt>
      <trkpt lat="11.995050944387913" lon="108.44683491624892">
        <ele>1562.38</ele>
      </trkpt>
      <trkpt lat="11.99506494216621" lon="108.44677498564124">
        <ele>1564.06</ele>
      </trkpt>
      <trkpt lat="11.995087992399931" lon="108.44672695733607">
        <ele>1565.61</ele>
      </trkpt>
      <trkpt lat="11.995118921622634" lon="108.44667096622288">
        <ele>1567.04</ele>
      </trkpt>
      <trkpt lat="11.995116993784904" lon="108.4465679526329">
        <ele>1568.29</ele>
      </trkpt>
      <trkpt lat="11.995116993784904" lon="108.44655697233975">
        <ele>1569.37</ele>
      </trkpt>
      <trkpt lat="11.995069971308112" lon="108.44649997539818">
        <ele>1570.34</ele>
      </trkpt>
      <trkpt lat="11.99497994966805" lon="108.44645999372005">
        <ele>1571.19</ele>
      </trkpt>
      <trkpt lat="11.994899986311793" lon="108.44639997929335">
        <ele>1571.91</ele>
      </trkpt>
      <trkpt lat="11.994719943031669" lon="108.44627995043993">
        <ele>1572.39</ele>
      </trkpt>
      <trkpt lat="11.994509976357222" lon="108.4460499510169">
        <ele>1572.73</ele>
      </trkpt>
      <trkpt lat="11.994369998574257" lon="108.44589999876916">
        <ele>1573.1</ele>
      </trkpt>
      <trkpt lat="11.994239995256066" lon="108.44578994438052">
        <ele>1573.34</ele>
      </trkpt>
      <trkpt lat="11.99409993365407" lon="108.44565994106233">
        <ele>1573.51</ele>
      </trkpt>
      <trkpt lat="11.993979988619685" lon="108.4455599449575">
        <ele>1573.52</ele>
      </trkpt>
      <trkpt lat="11.993959955871105" lon="108.44554997049272">
        <ele>1573.27</ele>
      </trkpt>
      <trkpt lat="11.993859959766269" lon="108.44549993053079">
        <ele>1572.88</ele>
      </trkpt>
      <trkpt lat="11.993729956448078" lon="108.44548995606601">
        <ele>1572.35</ele>
      </trkpt>
      <trkpt lat="11.993609927594662" lon="108.44548995606601">
        <ele>1571.68</ele>
      </trkpt>
      <trkpt lat="11.993429968133569" lon="108.44549993053079">
        <ele>1570.87</ele>
      </trkpt>
      <trkpt lat="11.993249924853444" lon="108.44550998881459">
        <ele>1569.83</ele>
      </trkpt>
      <trkpt lat="11.993179935961962" lon="108.44550998881459">
        <ele>1568.8</ele>
      </trkpt>
      <trkpt lat="11.993185970932245" lon="108.44553999602795">
        <ele>1567.83</ele>
      </trkpt>
      <trkpt lat="11.99317398481071" lon="108.4455409180373">
        <ele>1566.74</ele>
      </trkpt>
      <trkpt lat="11.993075916543603" lon="108.44554494135082">
        <ele>1565.52</ele>
      </trkpt>
      <trkpt lat="11.992890927940607" lon="108.4455369785428">
        <ele>1564.19</ele>
      </trkpt>
      <trkpt lat="11.99270099401474" lon="108.44546992331743">
        <ele>1562.89</ele>
      </trkpt>
      <trkpt lat="11.992505947127938" lon="108.44534394331276">
        <ele>1561.62</ele>
      </trkpt>
      <trkpt lat="11.99239999987185" lon="108.44534997828305">
        <ele>1560.61</ele>
      </trkpt>
      <trkpt lat="11.992349959909916" lon="108.44535995274782">
        <ele>1559.71</ele>
      </trkpt>
      <trkpt lat="11.992259938269854" lon="108.44535995274782">
        <ele>1558.9</ele>
      </trkpt>
      <trkpt lat="11.992138987407088" lon="108.44535995274782">
        <ele>1558.19</ele>
      </trkpt>
      <trkpt lat="11.991969924420118" lon="108.4453699272126">
        <ele>1557.66</ele>
      </trkpt>
      <trkpt lat="11.991859953850508" lon="108.44535995274782">
        <ele>1557.25</ele>
      </trkpt>
      <trkpt lat="11.991759957745671" lon="108.44535995274782">
        <ele>1557.0</ele>
      </trkpt>
      <trkpt lat="11.991699943318963" lon="108.44535995274782">
        <ele>1556.92</ele>
      </trkpt>
      <trkpt lat="11.991549991071224" lon="108.44533991999924">
        <ele>1556.95</ele>
      </trkpt>
      <trkpt lat="11.991459969431162" lon="108.44530999660492">
        <ele>1557.11</ele>
      </trkpt>
      <trkpt lat="11.991269951686263" lon="108.44524998217821">
        <ele>1557.4</ele>
      </trkpt>
      <trkpt lat="11.991169955581427" lon="108.44522994942963">
        <ele>1557.79</ele>
      </trkpt>
      <trkpt lat="11.99108999222517" lon="108.44521997496486">
        <ele>1558.25</ele>
      </trkpt>
      <trkpt lat="11.991058979183435" lon="108.44521997496486">
        <ele>1558.75</ele>
      </trkpt>
      <trkpt lat="11.991009945049882" lon="108.44521997496486">
        <ele>1559.3</ele>
      </trkpt>
      <trkpt lat="11.990999970585108" lon="108.44521997496486">
        <ele>1559.84</ele>
      </trkpt>
      <trkpt lat="11.990918917581439" lon="108.44522994942963">
        <ele>1560.45</ele>
      </trkpt>
      <trkpt lat="11.990839960053563" lon="108.4452399238944">
        <ele>1561.07</ele>
      </trkpt>
      <trkpt lat="11.9907499384135" lon="108.44526993110776">
        <ele>1561.66</ele>
      </trkpt>
      <trkpt lat="11.990659916773438" lon="108.44529993832111">
        <ele>1562.15</ele>
      </trkpt>
      <trkpt lat="11.990579953417182" lon="108.44534997828305">
        <ele>1562.51</ele>
      </trkpt>
      <trkpt lat="11.990519938990474" lon="108.4454299416393">
        <ele>1562.69</ele>
      </trkpt>
      <trkpt lat="11.990459924563766" lon="108.44552993774414">
        <ele>1562.72</ele>
      </trkpt>
      <trkpt lat="11.990308966487646" lon="108.44577996991575">
        <ele>1562.38</ele>
      </trkpt>
      <trkpt lat="11.990239983424544" lon="108.44588994048536">
        <ele>1562.05</ele>
      </trkpt>
      <trkpt lat="11.99020997621119" lon="108.44594995491207">
        <ele>1561.58</ele>
      </trkpt>
      <trkpt lat="11.990179968997836" lon="108.445999994874">
        <ele>1560.97</ele>
      </trkpt>
      <trkpt lat="11.990139987319708" lon="108.44603997655213">
        <ele>1560.23</ele>
      </trkpt>
      <trkpt lat="11.989999925717711" lon="108.44619998708367">
        <ele>1559.15</ele>
      </trkpt>
      <trkpt lat="11.989929936826229" lon="108.44625991769135">
        <ele>1558.11</ele>
      </trkpt>
      <trkpt lat="11.989879980683327" lon="108.44630995765328">
        <ele>1556.97</ele>
      </trkpt>
      <trkpt lat="11.989809991791844" lon="108.44635999761522">
        <ele>1555.68</ele>
      </trkpt>
      <trkpt lat="11.989669930189848" lon="108.44646996818483">
        <ele>1554.16</ele>
      </trkpt>
      <trkpt lat="11.989599941298366" lon="108.44652998261154">
        <ele>1552.68</ele>
      </trkpt>
      <trkpt lat="11.989519977942109" lon="108.4466099459678">
        <ele>1551.05</ele>
      </trkpt>
      <trkpt lat="11.989449989050627" lon="108.44665998592973">
        <ele>1549.47</ele>
      </trkpt>
      <trkpt lat="11.989368936046958" lon="108.44674992375076">
        <ele>1547.75</ele>
      </trkpt>
      <trkpt lat="11.989289978519082" lon="108.44681999646127">
        <ele>1546.05</ele>
      </trkpt>
      <trkpt lat="11.989239938557148" lon="108.44686995260417">
        <ele>1544.3</ele>
      </trkpt>
      <trkpt lat="11.989139942452312" lon="108.44692996703088">
        <ele>1542.53</ele>
      </trkpt>
      <trkpt lat="11.98906995356083" lon="108.44695997424424">
        <ele>1540.77</ele>
      </trkpt>
      <trkpt lat="11.988969957455993" lon="108.44700993038714">
        <ele>1538.93</ele>
      </trkpt>
      <trkpt lat="11.988779939711094" lon="108.44711998477578">
        <ele>1536.92</ele>
      </trkpt>
      <trkpt lat="11.988699976354837" lon="108.44715996645391">
        <ele>1535.21</ele>
      </trkpt>
      <trkpt lat="11.98863996192813" lon="108.44719994813204">
        <ele>1533.68</ele>
      </trkpt>
      <trkpt lat="11.988529991358519" lon="108.44725996255875">
        <ele>1532.2</ele>
      </trkpt>
      <trkpt lat="11.988419936969876" lon="108.44730991870165">
        <ele>1530.92</ele>
      </trkpt>
      <trkpt lat="11.988309966400266" lon="108.44734998419881">
        <ele>1529.79</ele>
      </trkpt>
      <trkpt lat="11.988199995830655" lon="108.44738996587694">
        <ele>1528.91</ele>
      </trkpt>
      <trkpt lat="11.988069992512465" lon="108.44739994034171">
        <ele>1528.19</ele>
      </trkpt>
      <trkpt lat="11.98799991980195" lon="108.44740999862552">
        <ele>1527.65</ele>
      </trkpt>
      <trkpt lat="11.987919956445694" lon="108.44741997309029">
        <ele>1527.27</ele>
      </trkpt>
      <trkpt lat="11.98788994923234" lon="108.44742994755507">
        <ele>1527.03</ele>
      </trkpt>
      <trkpt lat="11.987849967554212" lon="108.44743992201984">
        <ele>1526.9</ele>
      </trkpt>
      <trkpt lat="11.98777997866273" lon="108.44745995476842">
        <ele>1526.9</ele>
      </trkpt>
      <trkpt lat="11.987769920378923" lon="108.44743992201984">
        <ele>1526.95</ele>
      </trkpt>
      <trkpt lat="11.98775994591415" lon="108.44740999862552">
        <ele>1527.08</ele>
      </trkpt>
      <trkpt lat="11.987739996984601" lon="108.44739994034171">
        <ele>1527.32</ele>
      </trkpt>
      <trkpt lat="11.987739996984601" lon="108.44738996587694">
        <ele>1527.62</ele>
      </trkpt>
      <trkpt lat="11.987749971449375" lon="108.44737999141216">
        <ele>1527.98</ele>
      </trkpt>
      <trkpt lat="11.987749971449375" lon="108.44736993312836">
        <ele>1528.4</ele>
      </trkpt>
      <trkpt lat="11.987749971449375" lon="108.44735995866358">
        <ele>1528.85</ele>
      </trkpt>
      <trkpt lat="11.987739996984601" lon="108.44734998419881">
        <ele>1529.34</ele>
      </trkpt>
      <trkpt lat="11.987729938700795" lon="108.44732995145023">
        <ele>1529.84</ele>
      </trkpt>
      <trkpt lat="11.987719964236021" lon="108.44732995145023">
        <ele>1530.37</ele>
      </trkpt>
      <trkpt lat="11.987689957022667" lon="108.44731997698545">
        <ele>1530.9</ele>
      </trkpt>
      <trkpt lat="11.987619968131185" lon="108.44730991870165">
        <ele>1531.43</ele>
      </trkpt>
      <trkpt lat="11.98745995759964" lon="108.4472899697721">
        <ele>1532.07</ele>
      </trkpt>
      <trkpt lat="11.987389968708158" lon="108.44727999530733">
        <ele>1532.54</ele>
      </trkpt>
      <trkpt lat="11.987319979816675" lon="108.44725996255875">
        <ele>1532.92</ele>
      </trkpt>
      <trkpt lat="11.987269939854741" lon="108.44722995534539">
        <ele>1533.22</ele>
      </trkpt>
      <trkpt lat="11.987219983711839" lon="108.44719994813204">
        <ele>1533.42</ele>
      </trkpt>
      <trkpt lat="11.98715996928513" lon="108.44714999198914">
        <ele>1533.48</ele>
      </trkpt>
      <trkpt lat="11.987089980393648" lon="108.4470999520272">
        <ele>1533.45</ele>
      </trkpt>
      <trkpt lat="11.98700993321836" lon="108.4470399376005">
        <ele>1533.33</ele>
      </trkpt>
      <trkpt lat="11.986939944326878" lon="108.44698998145759">
        <ele>1533.13</ele>
      </trkpt>
      <trkpt lat="11.98687992990017" lon="108.44692996703088">
        <ele>1532.78</ele>
      </trkpt>
      <trkpt lat="11.986809941008687" lon="108.44688998535275">
        <ele>1532.35</ele>
      </trkpt>
      <trkpt lat="11.986659988760948" lon="108.44678998924792">
        <ele>1531.78</ele>
      </trkpt>
      <trkpt lat="11.98657994158566" lon="108.44674992375076">
        <ele>1531.13</ele>
      </trkpt>
      <trkpt lat="11.986439963802695" lon="108.4466699603945">
        <ele>1530.35</ele>
      </trkpt>
      <trkpt lat="11.986369974911213" lon="108.44663995318115">
        <ele>1529.48</ele>
      </trkpt>
      <trkpt lat="11.98627995327115" lon="108.4466099459678">
        <ele>1528.53</ele>
      </trkpt>
      <trkpt lat="11.986159924417734" lon="108.44656996428967">
        <ele>1527.45</ele>
      </trkpt>
      <trkpt lat="11.986089935526252" lon="108.44653995707631">
        <ele>1526.32</ele>
      </trkpt>
      <trkpt lat="11.986009972169995" lon="108.44650994986296">
        <ele>1525.13</ele>
      </trkpt>
      <trkpt lat="11.985929924994707" lon="108.44646996818483">
        <ele>1523.86</ele>
      </trkpt>
      <trkpt lat="11.985839987173676" lon="108.44640995375812">
        <ele>1522.49</ele>
      </trkpt>
      <trkpt lat="11.985769998282194" lon="108.44635999761522">
        <ele>1521.12</ele>
      </trkpt>
      <trkpt lat="11.98569992557168" lon="108.44632999040186">
        <ele>1519.83</ele>
      </trkpt>
      <trkpt lat="11.985619962215424" lon="108.44630995765328">
        <ele>1518.59</ele>
      </trkpt>
      <trkpt lat="11.985529940575361" lon="108.44629998318851">
        <ele>1517.33</ele>
      </trkpt>
      <trkpt lat="11.98539993725717" lon="108.44627995043993">
        <ele>1516.08</ele>
      </trkpt>
      <trkpt lat="11.985249985009432" lon="108.44626997597516">
        <ele>1515.08</ele>
      </trkpt>
      <trkpt lat="11.985109923407435" lon="108.44625991769135">
        <ele>1514.17</ele>
      </trkpt>
      <trkpt lat="11.984939938411117" lon="108.44625991769135">
        <ele>1513.33</ele>
      </trkpt>
      <trkpt lat="11.984869949519634" lon="108.44626997597516">
        <ele>1512.51</ele>
      </trkpt>
      <trkpt lat="11.98485997505486" lon="108.44626997597516">
        <ele>1511.71</ele>
      </trkpt>
      <trkpt lat="11.984739946201444" lon="108.44626997597516">
        <ele>1510.86</ele>
      </trkpt>
      <trkpt lat="11.984649924561381" lon="108.44625991769135">
        <ele>1510.08</ele>
      </trkpt>
      <trkpt lat="11.98453995399177" lon="108.4462399687618">
        <ele>1509.31</ele>
      </trkpt>
      <trkpt lat="11.984459990635514" lon="108.44621993601322">
        <ele>1508.56</ele>
      </trkpt>
      <trkpt lat="11.984348930418491" lon="108.44619998708367">
        <ele>1507.83</ele>
      </trkpt>
      <trkpt lat="11.984269972890615" lon="108.44618992879987">
        <ele>1507.18</ele>
      </trkpt>
      <trkpt lat="11.984169976785779" lon="108.4461799543351">
        <ele>1506.55</ele>
      </trkpt>
      <trkpt lat="11.984049947932363" lon="108.44616997987032">
        <ele>1505.89</ele>
      </trkpt>
      <trkpt lat="11.983819948509336" lon="108.44615992158651">
        <ele>1505.22</ele>
      </trkpt>
      <trkpt lat="11.983649963513017" lon="108.44612999819219">
        <ele>1504.6</ele>
      </trkpt>
      <trkpt lat="11.983539992943406" lon="108.44611993990839">
        <ele>1504.05</ele>
      </trkpt>
      <trkpt lat="11.98341996408999" lon="108.44610996544361">
        <ele>1503.49</ele>
      </trkpt>
      <trkpt lat="11.983209997415543" lon="108.44610996544361">
        <ele>1502.91</ele>
      </trkpt>
      <trkpt lat="11.983029954135418" lon="108.44611993990839">
        <ele>1502.24</ele>
      </trkpt>
      <trkpt lat="11.982829961925745" lon="108.44610996544361">
        <ele>1501.39</ele>
      </trkpt>
      <trkpt lat="11.982759973034263" lon="108.44609999097884">
        <ele>1500.59</ele>
      </trkpt>
      <trkpt lat="11.982699958607554" lon="108.44606998376548">
        <ele>1499.78</ele>
      </trkpt>
      <trkpt lat="11.982639944180846" lon="108.4460499510169">
        <ele>1498.99</ele>
      </trkpt>
      <trkpt lat="11.98255998082459" lon="108.44603997655213">
        <ele>1498.2</ele>
      </trkpt>
      <trkpt lat="11.982459984719753" lon="108.44605992548168">
        <ele>1497.41</ele>
      </trkpt>
      <trkpt lat="11.982349930331111" lon="108.44607995823026">
        <ele>1496.64</ele>
      </trkpt>
      <trkpt lat="11.982279941439629" lon="108.44609999097884">
        <ele>1495.94</ele>
      </trkpt>
      <trkpt lat="11.982188997790217" lon="108.44610996544361">
        <ele>1495.28</ele>
      </trkpt>
      <trkpt lat="11.98212998919189" lon="108.44610996544361">
        <ele>1494.62</ele>
      </trkpt>
      <trkpt lat="11.98208992369473" lon="108.44609999097884">
        <ele>1493.95</ele>
      </trkpt>
      <trkpt lat="11.982059916481376" lon="108.44608993269503">
        <ele>1493.38</ele>
      </trkpt>
      <trkpt lat="11.982039967551827" lon="108.44607995823026">
        <ele>1492.85</ele>
      </trkpt>
      <trkpt lat="11.982029993087053" lon="108.44607995823026">
        <ele>1492.4</ele>
      </trkpt>
      <trkpt lat="11.982009960338473" lon="108.44606998376548">
        <ele>1491.97</ele>
      </trkpt>
      <trkpt lat="11.981989927589893" lon="108.44607995823026">
        <ele>1491.66</ele>
      </trkpt>
      <trkpt lat="11.981869982555509" lon="108.44608993269503">
        <ele>1491.41</ele>
      </trkpt>
      <trkpt lat="11.981779960915446" lon="108.44608993269503">
        <ele>1491.2</ele>
      </trkpt>
      <trkpt lat="11.981719946488738" lon="108.44609999097884">
        <ele>1491.04</ele>
      </trkpt>
      <trkpt lat="11.981689939275384" lon="108.44610996544361">
        <ele>1491.02</ele>
      </trkpt>
      <trkpt lat="11.981639983132482" lon="108.44612999819219">
        <ele>1491.07</ele>
      </trkpt>
      <trkpt lat="11.981589943170547" lon="108.44616997987032">
        <ele>1491.26</ele>
      </trkpt>
      <trkpt lat="11.981509979814291" lon="108.4462399687618">
        <ele>1491.49</ele>
      </trkpt>
      <trkpt lat="11.981459939852357" lon="108.4462899249047">
        <ele>1491.89</ele>
      </trkpt>
      <trkpt lat="11.981409983709455" lon="108.44634993933141">
        <ele>1492.38</ele>
      </trkpt>
      <trkpt lat="11.981389950960875" lon="108.44640995375812">
        <ele>1493.02</ele>
      </trkpt>
      <trkpt lat="11.981369918212295" lon="108.44643996097147">
        <ele>1493.77</ele>
      </trkpt>
      <trkpt lat="11.981369918212295" lon="108.44645999372005">
        <ele>1494.66</ele>
      </trkpt>
      <trkpt lat="11.981399925425649" lon="108.44661992043257">
        <ele>1495.73</ele>
      </trkpt>
      <trkpt lat="11.981419958174229" lon="108.44667993485928">
        <ele>1496.89</ele>
      </trkpt>
      <trkpt lat="11.981438985094428" lon="108.44672997482121">
        <ele>1498.16</ele>
      </trkpt>
      <trkpt lat="11.981479972600937" lon="108.44682997092605">
        <ele>1499.58</ele>
      </trkpt>
      <trkpt lat="11.981519954279065" lon="108.44699995592237">
        <ele>1501.06</ele>
      </trkpt>
      <trkpt lat="11.981539987027645" lon="108.44707991927862">
        <ele>1502.48</ele>
      </trkpt>
      <trkpt lat="11.981599917635322" lon="108.44723992981017">
        <ele>1504.03</ele>
      </trkpt>
      <trkpt lat="11.981628919020295" lon="108.4472899697721">
        <ele>1505.44</ele>
      </trkpt>
      <trkpt lat="11.981749953702092" lon="108.44744998030365">
        <ele>1507.05</ele>
      </trkpt>
      <trkpt lat="11.981779960915446" lon="108.44750999473035">
        <ele>1508.34</ele>
      </trkpt>
      <trkpt lat="11.981829917058349" lon="108.44761996529996">
        <ele>1509.52</ele>
      </trkpt>
      <trkpt lat="11.981869982555509" lon="108.44767997972667">
        <ele>1510.58</ele>
      </trkpt>
      <trkpt lat="11.981949945911765" lon="108.44775994308293">
        <ele>1511.58</ele>
      </trkpt>
      <trkpt lat="11.9819999858737" lon="108.44777997583151">
        <ele>1512.43</ele>
      </trkpt>
      <trkpt lat="11.982059916481376" lon="108.44779992476106">
        <ele>1513.15</ele>
      </trkpt>
      <trkpt lat="11.982188997790217" lon="108.44784996472299">
        <ele>1513.73</ele>
      </trkpt>
      <trkpt lat="11.982209952548146" lon="108.44785993918777">
        <ele>1514.11</ele>
      </trkpt>
      <trkpt lat="11.98221992701292" lon="108.44786999747157">
        <ele>1514.35</ele>
      </trkpt>
      <trkpt lat="11.98221992701292" lon="108.44788994640112">
        <ele>1514.42</ele>
      </trkpt>
      <trkpt lat="11.98221992701292" lon="108.4478999208659">
        <ele>1514.4</ele>
      </trkpt>
      <trkpt lat="11.982209952548146" lon="108.44793998636305">
        <ele>1514.24</ele>
      </trkpt>
      <trkpt lat="11.982199978083372" lon="108.44794996082783">
        <ele>1514.02</ele>
      </trkpt>
      <trkpt lat="11.982029993087053" lon="108.44819999299943">
        <ele>1513.55</ele>
      </trkpt>
      <trkpt lat="11.981949945911765" lon="108.44830996356905">
        <ele>1513.18</ele>
      </trkpt>
      <trkpt lat="11.981829917058349" lon="108.44842999242246">
        <ele>1512.78</ele>
      </trkpt>
      <trkpt lat="11.981739979237318" lon="108.44850995577872">
        <ele>1512.35</ele>
      </trkpt>
      <trkpt lat="11.98167996481061" lon="108.4485799446702">
        <ele>1512.02</ele>
      </trkpt>
      <trkpt lat="11.98167996481061" lon="108.44860995188355">
        <ele>1511.84</ele>
      </trkpt>
      <trkpt lat="11.981669990345836" lon="108.44865999184549">
        <ele>1511.72</ele>
      </trkpt>
      <trkpt lat="11.981669990345836" lon="108.44871992245317">
        <ele>1511.68</ele>
      </trkpt>
      <trkpt lat="11.981689939275384" lon="108.44875998795033">
        <ele>1511.75</ele>
      </trkpt>
      <trkpt lat="11.98169999755919" lon="108.44878999516368">
        <ele>1511.85</ele>
      </trkpt>
      <trkpt lat="11.981709972023964" lon="108.44880994409323">
        <ele>1512.02</ele>
      </trkpt>
      <trkpt lat="11.981719946488738" lon="108.44880994409323">
        <ele>1512.24</ele>
      </trkpt>
      <trkpt lat="11.981739979237318" lon="108.448819918558">
        <ele>1512.54</ele>
      </trkpt>
      <trkpt lat="11.981768980622292" lon="108.44880994409323">
        <ele>1512.87</ele>
      </trkpt>
      <trkpt lat="11.981819942593575" lon="108.44879996962845">
        <ele>1513.24</ele>
      </trkpt>
      <trkpt lat="11.981908958405256" lon="108.44875998795033">
        <ele>1513.54</ele>
      </trkpt>
      <trkpt lat="11.982009960338473" lon="108.44872998073697">
        <ele>1513.88</ele>
      </trkpt>
      <trkpt lat="11.98212998919189" lon="108.44870994798839">
        <ele>1514.2</ele>
      </trkpt>
      <trkpt lat="11.982309948652983" lon="108.44869997352362">
        <ele>1514.53</ele>
      </trkpt>
      <trkpt lat="11.982389995828271" lon="108.44870994798839">
        <ele>1514.66</ele>
      </trkpt>
      <trkpt lat="11.9824299775064" lon="108.44872998073697">
        <ele>1514.64</ele>
      </trkpt>
      <trkpt lat="11.982459984719753" lon="108.44874992966652">
        <ele>1514.48</ele>
      </trkpt>
      <trkpt lat="11.982479933649302" lon="108.44877993687987">
        <ele>1514.19</ele>
      </trkpt>
      <trkpt lat="11.982489991933107" lon="108.448819918558">
        <ele>1513.74</ele>
      </trkpt>
      <trkpt lat="11.982489991933107" lon="108.44886995851994">
        <ele>1513.14</ele>
      </trkpt>
      <trkpt lat="11.982469959184527" lon="108.44891999848187">
        <ele>1512.39</ele>
      </trkpt>
      <trkpt lat="11.982399970293045" lon="108.4490199945867">
        <ele>1511.4</ele>
      </trkpt>
      <trkpt lat="11.982269966974854" lon="108.44916994683444">
        <ele>1510.22</ele>
      </trkpt>
      <trkpt lat="11.982159996405244" lon="108.44922996126115">
        <ele>1509.15</ele>
      </trkpt>
      <trkpt lat="11.9819999858737" lon="108.44926994293928">
        <ele>1507.94</ele>
      </trkpt>
      <trkpt lat="11.981759928166866" lon="108.44932995736599">
        <ele>1506.54</ele>
      </trkpt>
      <trkpt lat="11.98167996481061" lon="108.44937999732792">
        <ele>1505.33</ele>
      </trkpt>
      <trkpt lat="11.981628919020295" lon="108.44940992072225">
        <ele>1504.2</ele>
      </trkpt>
      <trkpt lat="11.981599917635322" lon="108.44945996068418">
        <ele>1503.08</ele>
      </trkpt>
      <trkpt lat="11.981589943170547" lon="108.4494499862194">
        <ele>1502.07</ele>
      </trkpt>
      <trkpt lat="11.98152992874384" lon="108.4494499862194">
        <ele>1501.04</ele>
      </trkpt>
      <trkpt lat="11.981449965387583" lon="108.44946993514895">
        <ele>1500.08</ele>
      </trkpt>
      <trkpt lat="11.981389950960875" lon="108.44950991682708">
        <ele>1499.2</ele>
      </trkpt>
      <trkpt lat="11.981339994817972" lon="108.44953992404044">
        <ele>1498.42</ele>
      </trkpt>
      <trkpt lat="11.981289954856038" lon="108.44958996400237">
        <ele>1497.78</ele>
      </trkpt>
      <trkpt lat="11.981239998713136" lon="108.44963992014527">
        <ele>1497.24</ele>
      </trkpt>
      <trkpt lat="11.981189958751202" lon="108.44965995289385">
        <ele>1496.77</ele>
      </trkpt>
      <trkpt lat="11.981169926002622" lon="108.44966992735863">
        <ele>1496.48</ele>
      </trkpt>
      <trkpt lat="11.981089962646365" lon="108.44966992735863">
        <ele>1496.31</ele>
      </trkpt>
      <trkpt lat="11.980899944901466" lon="108.44965995289385">
        <ele>1496.27</ele>
      </trkpt>
      <trkpt lat="11.980719985440373" lon="108.44964997842908">
        <ele>1496.45</ele>
      </trkpt>
      <trkpt lat="11.980539942160249" lon="108.44963992014527">
        <ele>1496.87</ele>
      </trkpt>
      <trkpt lat="11.980379931628704" lon="108.44963992014527">
        <ele>1497.46</ele>
      </trkpt>
      <trkpt lat="11.980319917201996" lon="108.44964997842908">
        <ele>1498.37</ele>
      </trkpt>
      <trkpt lat="11.980214975774288" lon="108.4496109187603">
        <ele>1499.46</ele>
      </trkpt>
      <trkpt lat="11.980101987719536" lon="108.44956297427416">
        <ele>1500.69</ele>
      </trkpt>
      <trkpt lat="11.979862935841084" lon="108.44953598454595">
        <ele>1502.29</ele>
      </trkpt>
      <trkpt lat="11.979891937226057" lon="108.4494399279356">
        <ele>1503.01</ele>
      </trkpt>
      <trkpt lat="11.979878945276141" lon="108.4493159595877">
        <ele>1504.2</ele>
      </trkpt>
      <trkpt lat="11.979928985238075" lon="108.44914396293461">
        <ele>1505.59</ele>
      </trkpt>
      <trkpt lat="11.979951951652765" lon="108.4490479901433">
        <ele>1507.8</ele>
      </trkpt>
      <trkpt lat="11.97985497303307" lon="108.4489409532398">
        <ele>1510.66</ele>
      </trkpt>
      <trkpt lat="11.979726981371641" lon="108.4488389454782">
        <ele>1513.64</ele>
      </trkpt>
      <trkpt lat="11.979650957509875" lon="108.44872092828155">
        <ele>1516.15</ele>
      </trkpt>
      <trkpt lat="11.979568982496858" lon="108.44858698546886">
        <ele>1518.52</ele>
      </trkpt>
      <trkpt lat="11.979487929493189" lon="108.44845195300877">
        <ele>1520.55</ele>
      </trkpt>
      <trkpt lat="11.979411989450455" lon="108.44835095107555">
        <ele>1522.38</ele>
      </trkpt>
      <trkpt lat="11.979319956153631" lon="108.4482329338789">
        <ele>1523.95</ele>
      </trkpt>
      <trkpt lat="11.979243932291865" lon="108.44809295609593">
        <ele>1524.97</ele>
      </trkpt>
      <trkpt lat="11.979189030826092" lon="108.44802900217474">
        <ele>1525.86</ele>
      </trkpt>
    </trkseg>
  </trk>
</gpx>
