<?xml version="1.0" encoding="UTF-8"?>
<gpx creator="https://gpx.studio" version="1.1" schemaLocation="http://www.topografix.com/GPX/1/1 http://www.topografix.com/GPX/1/1/gpx.xsd http://www.garmin.com/xmlschemas/GpxExtensions/v3 http://www.garmin.com/xmlschemas/GpxExtensionsv3.xsd http://www.garmin.com/xmlschemas/TrackPointExtension/v1 http://www.garmin.com/xmlschemas/TrackPointExtensionv1.xsd http://www.garmin.com/xmlschemas/PowerExtension/v1 http://www.garmin.com/xmlschemas/PowerExtensionv1.xsd http://www.topografix.com/GPX/gpx_style/0/2 http://www.topografix.com/GPX/gpx_style/0/2/gpx_style.xsd" xmlns="http://www.topografix.com/GPX/1/1" xmlns:xsi="http://www.w3.org/2001/XMLSchema-instance" xsi:schemaLocation="http://www.topografix.com/GPX/1/1 http://www.topografix.com/GPX/1/1/gpx.xsd http://www.garmin.com/xmlschemas/GpxExtensions/v3 http://www.garmin.com/xmlschemas/GpxExtensionsv3.xsd http://www.garmin.com/xmlschemas/TrackPointExtension/v1 http://www.garmin.com/xmlschemas/TrackPointExtensionv1.xsd http://www.garmin.com/xmlschemas/PowerExtension/v1 http://www.garmin.com/xmlschemas/PowerExtensionv1.xsd http://www.topografix.com/GPX/gpx_style/0/2 http://www.topografix.com/GPX/gpx_style/0/2/gpx_style.xsd" xmlns:gpxtpx="http://www.garmin.com/xmlschemas/TrackPointExtension/v1" xmlns:gpxx="http://www.garmin.com/xmlschemas/GpxExtensions/v3" xmlns:gpxpx="http://www.garmin.com/xmlschemas/PowerExtension/v1" xmlns:gpx_style="http://www.topografix.com/GPX/gpx_style/0/2">
  <metadata>
    <name>DHS 2025 - 15Km</name>
    <desc>Dinh Harvest Spring 2026 - 15Km</desc>
    <author>
      <name>gpx.studio</name>
      <link href="https://gpx.studio"/>
    </author>
  </metadata>
  <wpt lat="10.527467" lon="107.13443">
    <ele>279.26812351284997</ele>
    <name>CP01</name>
    <cmt>Nước, điện giải, thực phẩm, y tế cơ bản, xe DNF</cmt>
    <desc>Nước, điện giải, thực phẩm, y tế cơ bản, xe DNF</desc>
  </wpt>
  <wpt lat="10.537523" lon="107.128289">
    <ele>439.6124454259755</ele>
    <name>CP04</name>
    <cmt>Nước, điện giải, y tế cơ bản</cmt>
    <desc>Nước, điện giải, y tế cơ bản</desc>
  </wpt>
  <trk>
    <name>DHS 2025 - 15Km</name>
    <extensions>
      <gpx_style:line>
        <gpx_style:color>00ccff</gpx_style:color>
      </gpx_style:line>
    </extensions>
    <trkseg>
      <trkpt lat="10.515595359446124" lon="107.11774098369506">
        <ele>14.681425409833624</ele>
      </trkpt>
      <trkpt lat="10.515222295812944" lon="107.11799630488552">
        <ele>16.55359414004129</ele>
      </trkpt>
      <trkpt lat="10.514849232179762" lon="107.11825162607599">
        <ele>21.510925182801422</ele>
      </trkpt>
      <trkpt lat="10.514772" lon="107.118303">
        <ele>23.25</ele>
      </trkpt>
      <trkpt lat="10.514865" lon="107.118454">
        <ele>24.25</ele>
      </trkpt>
      <trkpt lat="10.514997" lon="107.118593">
        <ele>24.75</ele>
      </trkpt>
      <trkpt lat="10.515149" lon="107.118681">
        <ele>25.25</ele>
      </trkpt>
      <trkpt lat="10.515619" lon="107.118781">
        <ele>25</ele>
      </trkpt>
      <trkpt lat="10.51622" lon="107.118922">
        <ele>24.75</ele>
      </trkpt>
      <trkpt lat="10.516474" lon="107.119022">
        <ele>24.25</ele>
      </trkpt>
      <trkpt lat="10.516657" lon="107.119174">
        <ele>24</ele>
      </trkpt>
      <trkpt lat="10.516774" lon="107.119344">
        <ele>26</ele>
      </trkpt>
      <trkpt lat="10.516911" lon="107.119453">
        <ele>27</ele>
      </trkpt>
      <trkpt lat="10.517148" lon="107.119571">
        <ele>27.5</ele>
      </trkpt>
      <trkpt lat="10.517328" lon="107.119623">
        <ele>26.05376726948804</ele>
      </trkpt>
      <trkpt lat="10.517468031179604" lon="107.11968822748867">
        <ele>26.352624027386383</ele>
      </trkpt>
      <trkpt lat="10.517562187387881" lon="107.11971786907952">
        <ele>26.081593591383914</ele>
      </trkpt>
      <trkpt lat="10.517615990922124" lon="107.1196585858965">
        <ele>24.93116944306557</ele>
      </trkpt>
      <trkpt lat="10.517645134499446" lon="107.11954685989559">
        <ele>23.33363815981417</ele>
      </trkpt>
      <trkpt lat="10.517728081588743" lon="107.11939865193614">
        <ele>21.357880633695622</ele>
      </trkpt>
      <trkpt lat="10.517819995904617" lon="107.11927780544556">
        <ele>20.57234244809877</ele>
      </trkpt>
      <trkpt lat="10.517885008452438" lon="107.11920028128213">
        <ele>20.61338741952536</ele>
      </trkpt>
      <trkpt lat="10.517950020987684" lon="107.11922992287424">
        <ele>20.876891846719523</ele>
      </trkpt>
      <trkpt lat="10.517983648154981" lon="107.11928008556885">
        <ele>21.113249682278536</ele>
      </trkpt>
      <trkpt lat="10.517987010870158" lon="107.11934734918344">
        <ele>21.171650444140386</ele>
      </trkpt>
      <trkpt lat="10.518013912601958" lon="107.11940663236771">
        <ele>21.459874161396506</ele>
      </trkpt>
      <trkpt lat="10.518055386099206" lon="107.11943057365335">
        <ele>21.650843819136465</ele>
      </trkpt>
      <trkpt lat="10.518168116730138" lon="107.11936527853919">
        <ele>22.14253329043375</ele>
      </trkpt>
      <trkpt lat="10.51822864558676" lon="107.1193641384782">
        <ele>22.58204490988265</ele>
      </trkpt>
      <trkpt lat="10.518279086291955" lon="107.11939834031449">
        <ele>22.8763439910024</ele>
      </trkpt>
      <trkpt lat="10.518314955231702" lon="107.11945192319229">
        <ele>22.94408563235863</ele>
      </trkpt>
      <trkpt lat="10.518354186881638" lon="107.11951576662187">
        <ele>22.99987287544676</ele>
      </trkpt>
      <trkpt lat="10.518404627565104" lon="107.11954882839723">
        <ele>23.192436932120618</ele>
      </trkpt>
      <trkpt lat="10.518489816258509" lon="107.11958873053993">
        <ele>23.454796031513673</ele>
      </trkpt>
      <trkpt lat="10.518543619630961" lon="107.11955908894788">
        <ele>23.7344573454938</ele>
      </trkpt>
      <trkpt lat="10.518598543897212" lon="107.11951918680506">
        <ele>24.006952102425927</ele>
      </trkpt>
      <trkpt lat="10.51862592766625" lon="107.11946258080513">
        <ele>24.256590900139265</ele>
      </trkpt>
      <trkpt lat="10.518665591143773" lon="107.11939636719023">
        <ele>24.532532957709357</ele>
      </trkpt>
      <trkpt lat="10.518752146160367" lon="107.11933309246353">
        <ele>24.805120538910142</ele>
      </trkpt>
      <trkpt lat="10.518822472093191" lon="107.11936885644042">
        <ele>25.020980951308747</ele>
      </trkpt>
      <trkpt lat="10.518898207695813" lon="107.11950641019541">
        <ele>25.2665988206245</ele>
      </trkpt>
      <trkpt lat="10.51892255127808" lon="107.11955592954865">
        <ele>25.382806067981562</ele>
      </trkpt>
      <trkpt lat="10.518990172330717" lon="107.11957243599824">
        <ele>25.839826284024248</ele>
      </trkpt>
      <trkpt lat="10.519101070824476" lon="107.11955317847247">
        <ele>27.07177544574313</ele>
      </trkpt>
      <trkpt lat="10.519228198317421" lon="107.11953942309754">
        <ele>28.81378366888692</ele>
      </trkpt>
      <trkpt lat="10.519312048336971" lon="107.11945689084365">
        <ele>29.50668681799517</ele>
      </trkpt>
      <trkpt lat="10.519468928958418" lon="107.11931658601253">
        <ele>30.67962598578086</ele>
      </trkpt>
      <trkpt lat="10.519633924008161" lon="107.11920104085647">
        <ele>31.787441411262602</ele>
      </trkpt>
      <trkpt lat="10.51990716522991" lon="107.11911310627733">
        <ele>35.72852535887091</ele>
      </trkpt>
      <trkpt lat="10.52017070950913" lon="107.11907888714205">
        <ele>42.296398446662806</ele>
      </trkpt>
      <trkpt lat="10.520406216971665" lon="107.11908459033049">
        <ele>49.6738171329004</ele>
      </trkpt>
      <trkpt lat="10.520852158477052" lon="107.11902589351247">
        <ele>63.67894010744136</ele>
      </trkpt>
      <trkpt lat="10.520882838668584" lon="107.11902185524826">
        <ele>64.64387695784806</ele>
      </trkpt>
      <trkpt lat="10.521202455158928" lon="107.11901615205835">
        <ele>71.74197337296017</ele>
      </trkpt>
      <trkpt lat="10.521337030423751" lon="107.1193184210938">
        <ele>80.5927145706693</ele>
      </trkpt>
      <trkpt lat="10.52158935888744" lon="107.11944959444963">
        <ele>85.75837961933796</ele>
      </trkpt>
      <trkpt lat="10.521925796518275" lon="107.11955795504707">
        <ele>92.47502512133758</ele>
      </trkpt>
      <trkpt lat="10.522196092017069" lon="107.11961189376382">
        <ele>98.9088593631643</ele>
      </trkpt>
      <trkpt lat="10.5223474886986" lon="107.11961189376382">
        <ele>102.43846300898215</ele>
      </trkpt>
      <trkpt lat="10.522470848902614" lon="107.11970884798285">
        <ele>107.49948083087816</ele>
      </trkpt>
      <trkpt lat="10.522683925502562" lon="107.11997119469305">
        <ele>118.17920630535389</ele>
      </trkpt>
      <trkpt lat="10.523037183752123" lon="107.11991986598923">
        <ele>126.8843872327262</ele>
      </trkpt>
      <trkpt lat="10.52339044159632" lon="107.11990845961083">
        <ele>134.2411063008889</ele>
      </trkpt>
      <trkpt lat="10.523710055488507" lon="107.11999400744992">
        <ele>142.84266271028</ele>
      </trkpt>
      <trkpt lat="10.523883880447997" lon="107.12019361907784">
        <ele>152.66504892828004</ele>
      </trkpt>
      <trkpt lat="10.523861451426939" lon="107.12043315303112">
        <ele>157.80282032317962</ele>
      </trkpt>
      <trkpt lat="10.523810986122143" lon="107.12068979655282">
        <ele>161.39563702659916</ele>
      </trkpt>
      <trkpt lat="10.523525015906642" lon="107.12088940817932">
        <ele>155.47431554615105</ele>
      </trkpt>
      <trkpt lat="10.523201624175847" lon="107.12120718227193">
        <ele>148.83208729253312</ele>
      </trkpt>
      <trkpt lat="10.523194187288425" lon="107.12121448997317">
        <ele>148.66839899701492</ele>
      </trkpt>
      <trkpt lat="10.523177365484457" lon="107.12143121116958">
        <ele>150.60089432351725</ele>
      </trkpt>
      <trkpt lat="10.523255867227348" lon="107.1217905120987">
        <ele>157.68893783130088</ele>
      </trkpt>
      <trkpt lat="10.523412870652365" lon="107.12214981302787">
        <ele>167.38028657036483</ele>
      </trkpt>
      <trkpt lat="10.523553052214012" lon="107.1225319267154">
        <ele>172.2935759005144</ele>
      </trkpt>
      <trkpt lat="10.52363716112086" lon="107.12274294472184">
        <ele>175.1612726611789</ele>
      </trkpt>
      <trkpt lat="10.52367080467701" lon="107.12311365202942">
        <ele>176.42298827429875</ele>
      </trkpt>
      <trkpt lat="10.52374271508077" lon="107.12356511889406">
        <ele>183.7799196080926</ele>
      </trkpt>
      <trkpt lat="10.523751633194209" lon="107.12362110846584">
        <ele>184.56310464025088</ele>
      </trkpt>
      <trkpt lat="10.523863778326003" lon="107.12392908069125">
        <ele>188.2984193507705</ele>
      </trkpt>
      <trkpt lat="10.524076853963663" lon="107.12406025404556">
        <ele>190.50077790918766</ele>
      </trkpt>
      <trkpt lat="10.524329180186086" lon="107.12410587956083">
        <ele>189.92086505988192</ele>
      </trkpt>
      <trkpt lat="10.524536648259101" lon="107.12394048706972">
        <ele>193.5403032614754</ele>
      </trkpt>
      <trkpt lat="10.524710472753455" lon="107.12386064241912">
        <ele>194.03239010431824</ele>
      </trkpt>
      <trkpt lat="10.524929155042244" lon="107.12382072009376">
        <ele>192.7027220860136</ele>
      </trkpt>
      <trkpt lat="10.52518708779877" lon="107.12391767431279">
        <ele>185.52852588817535</ele>
      </trkpt>
      <trkpt lat="10.525394555294639" lon="107.12416861464453">
        <ele>176.14717346649323</ele>
      </trkpt>
      <trkpt lat="10.525607629874642" lon="107.12410587956083">
        <ele>177.04734661755617</ele>
      </trkpt>
      <trkpt lat="10.525910419814096" lon="107.12398611258487">
        <ele>178.70137844645927</ele>
      </trkpt>
      <trkpt lat="10.526044993024769" lon="107.12400322215336">
        <ele>179.16525051946445</ele>
      </trkpt>
      <trkpt lat="10.526326782820094" lon="107.12364681188531">
        <ele>183.40881632732368</ele>
      </trkpt>
      <trkpt lat="10.526519214231186" lon="107.12340342290548">
        <ele>188.67520601966066</ele>
      </trkpt>
      <trkpt lat="10.526774852421363" lon="107.12302716690357">
        <ele>202.50221671076426</ele>
      </trkpt>
      <trkpt lat="10.526995826481624" lon="107.12270193061403">
        <ele>218.867278763233</ele>
      </trkpt>
      <trkpt lat="10.527306948773544" lon="107.12237172332286">
        <ele>231.48552067349326</ele>
      </trkpt>
      <trkpt lat="10.527382722943116" lon="107.12229130098115">
        <ele>232.7733248753345</ele>
      </trkpt>
      <trkpt lat="10.527629885416248" lon="107.12190923014954">
        <ele>237.7845907002287</ele>
      </trkpt>
      <trkpt lat="10.527805" lon="107.121631">
        <ele>237.75</ele>
      </trkpt>
      <trkpt lat="10.527883" lon="107.121606">
        <ele>237.25</ele>
      </trkpt>
      <trkpt lat="10.527989" lon="107.121658">
        <ele>238</ele>
      </trkpt>
      <trkpt lat="10.528119" lon="107.121747">
        <ele>237.25</ele>
      </trkpt>
      <trkpt lat="10.528345" lon="107.12184">
        <ele>236.5</ele>
      </trkpt>
      <trkpt lat="10.528527" lon="107.121844">
        <ele>236.5</ele>
      </trkpt>
      <trkpt lat="10.528774" lon="107.121909">
        <ele>237</ele>
      </trkpt>
      <trkpt lat="10.52887" lon="107.122146">
        <ele>240.25</ele>
      </trkpt>
      <trkpt lat="10.528818" lon="107.12244">
        <ele>243</ele>
      </trkpt>
      <trkpt lat="10.528931" lon="107.122791">
        <ele>248.25</ele>
      </trkpt>
      <trkpt lat="10.528905" lon="107.122905">
        <ele>248.25</ele>
      </trkpt>
      <trkpt lat="10.529004" lon="107.123138">
        <ele>253</ele>
      </trkpt>
      <trkpt lat="10.529151" lon="107.123541">
        <ele>261.25</ele>
      </trkpt>
      <trkpt lat="10.529135" lon="107.123875">
        <ele>262.5</ele>
      </trkpt>
      <trkpt lat="10.529171" lon="107.124397">
        <ele>266.25</ele>
      </trkpt>
      <trkpt lat="10.529349" lon="107.124521">
        <ele>269.1525063033831</ele>
      </trkpt>
      <trkpt lat="10.529389649529065" lon="107.12472666058801">
        <ele>269.2286095374366</ele>
      </trkpt>
      <trkpt lat="10.529317985270055" lon="107.12496521508263">
        <ele>269.4789250653282</ele>
      </trkpt>
      <trkpt lat="10.529324500203217" lon="107.1251971430645">
        <ele>272.6160625119042</ele>
      </trkpt>
      <trkpt lat="10.52924632099436" lon="107.12534292636701">
        <ele>276.1849729977066</ele>
      </trkpt>
      <trkpt lat="10.529285410601261" lon="107.12555497480724">
        <ele>281.8270076825986</ele>
      </trkpt>
      <trkpt lat="10.529278895667247" lon="107.12568087856818">
        <ele>285.70482517669797</ele>
      </trkpt>
      <trkpt lat="10.52905738782421" lon="107.1260122042566">
        <ele>294.0159419628795</ele>
      </trkpt>
      <trkpt lat="10.528966178665684" lon="107.12626401177835">
        <ele>297.44468397315535</ele>
      </trkpt>
      <trkpt lat="10.528822849934016" lon="107.1266085904939">
        <ele>300.51553295792684</ele>
      </trkpt>
      <trkpt lat="10.528666491241992" lon="107.12690678361349">
        <ele>301.92816505937475</ele>
      </trkpt>
      <trkpt lat="10.52849058761825" lon="107.12714533810805">
        <ele>299.7507753147607</ele>
      </trkpt>
      <trkpt lat="10.528464527813412" lon="107.12739051911711">
        <ele>300.1341799049301</ele>
      </trkpt>
      <trkpt lat="10.528458012862032" lon="107.12756943498857">
        <ele>299.8016768307971</ele>
      </trkpt>
      <trkpt lat="10.528282109119331" lon="107.12780798948307">
        <ele>297.9892765273925</ele>
      </trkpt>
      <trkpt lat="10.527995450953341" lon="107.12810618260266">
        <ele>295.41126556854255</ele>
      </trkpt>
      <trkpt lat="10.527956361182845" lon="107.12841762874939">
        <ele>289.84484430888125</ele>
      </trkpt>
      <trkpt lat="10.527669702713993" lon="107.12870919535447">
        <ele>286.5519243566661</ele>
      </trkpt>
      <trkpt lat="10.527426299319686" lon="107.12899244466712">
        <ele>286.3866676233794</ele>
      </trkpt>
      <trkpt lat="10.527348119629394" lon="107.12912497494244">
        <ele>285.8147237485282</ele>
      </trkpt>
      <trkpt lat="10.527322059727993" lon="107.12936352943711">
        <ele>283.68728778262243</ele>
      </trkpt>
      <trkpt lat="10.52713964035793" lon="107.12948943319799">
        <ele>280.9026434269552</ele>
      </trkpt>
      <trkpt lat="10.526879041070785" lon="107.12964184301501">
        <ele>276.2509978341097</ele>
      </trkpt>
      <trkpt lat="10.526787831267825" lon="107.13001955429769">
        <ele>273.53040780238916</ele>
      </trkpt>
      <trkpt lat="10.526716166403972" lon="107.1302779883357">
        <ele>269.89257365319673</ele>
      </trkpt>
      <trkpt lat="10.526624956553619" lon="107.13054304888465">
        <ele>265.0535629687844</ele>
      </trkpt>
      <trkpt lat="10.52669010644999" lon="107.13084786851687">
        <ele>261.54721037233287</ele>
      </trkpt>
      <trkpt lat="10.526794346254448" lon="107.1309870253067">
        <ele>260.1047578844253</ele>
      </trkpt>
      <trkpt lat="10.527081005538008" lon="107.1310864230133">
        <ele>259.2360502688682</ele>
      </trkpt>
      <trkpt lat="10.527038" lon="107.131097">
        <ele>263</ele>
      </trkpt>
      <trkpt lat="10.527091" lon="107.131071">
        <ele>263.25</ele>
      </trkpt>
      <trkpt lat="10.527212" lon="107.131019">
        <ele>263.5</ele>
      </trkpt>
      <trkpt lat="10.52732" lon="107.131006">
        <ele>264</ele>
      </trkpt>
      <trkpt lat="10.527402" lon="107.13102">
        <ele>264.5</ele>
      </trkpt>
      <trkpt lat="10.527468" lon="107.131071">
        <ele>265.25</ele>
      </trkpt>
      <trkpt lat="10.527511" lon="107.131159">
        <ele>266.5</ele>
      </trkpt>
      <trkpt lat="10.52751" lon="107.131269">
        <ele>267.75</ele>
      </trkpt>
      <trkpt lat="10.527481" lon="107.13143">
        <ele>269.25</ele>
      </trkpt>
      <trkpt lat="10.527407" lon="107.131591">
        <ele>270</ele>
      </trkpt>
      <trkpt lat="10.52727" lon="107.131736">
        <ele>270.5</ele>
      </trkpt>
      <trkpt lat="10.527091" lon="107.131816">
        <ele>270</ele>
      </trkpt>
      <trkpt lat="10.526811" lon="107.131891">
        <ele>268</ele>
      </trkpt>
      <trkpt lat="10.526674" lon="107.131891">
        <ele>266.25</ele>
      </trkpt>
      <trkpt lat="10.526458" lon="107.131768">
        <ele>264</ele>
      </trkpt>
      <trkpt lat="10.526247" lon="107.131693">
        <ele>262.75</ele>
      </trkpt>
      <trkpt lat="10.526068" lon="107.13165">
        <ele>262.5</ele>
      </trkpt>
      <trkpt lat="10.525878" lon="107.131655">
        <ele>262.75</ele>
      </trkpt>
      <trkpt lat="10.52572" lon="107.131725">
        <ele>263.75</ele>
      </trkpt>
      <trkpt lat="10.525572" lon="107.131864">
        <ele>265.75</ele>
      </trkpt>
      <trkpt lat="10.525498" lon="107.132031">
        <ele>267.5</ele>
      </trkpt>
      <trkpt lat="10.525451" lon="107.132229">
        <ele>269.5</ele>
      </trkpt>
      <trkpt lat="10.52548" lon="107.132404">
        <ele>271.75</ele>
      </trkpt>
      <trkpt lat="10.525583" lon="107.132594">
        <ele>274</ele>
      </trkpt>
      <trkpt lat="10.525754" lon="107.132758">
        <ele>275.25</ele>
      </trkpt>
      <trkpt lat="10.525947" lon="107.132889">
        <ele>276</ele>
      </trkpt>
      <trkpt lat="10.526084" lon="107.13305">
        <ele>276.75</ele>
      </trkpt>
      <trkpt lat="10.526171" lon="107.133209">
        <ele>277.5</ele>
      </trkpt>
      <trkpt lat="10.526377" lon="107.133659">
        <ele>278.5</ele>
      </trkpt>
      <trkpt lat="10.526461" lon="107.133815">
        <ele>278.25</ele>
      </trkpt>
      <trkpt lat="10.526561" lon="107.133938">
        <ele>278</ele>
      </trkpt>
      <trkpt lat="10.526677" lon="107.134035">
        <ele>277.75</ele>
      </trkpt>
      <trkpt lat="10.526819" lon="107.134131">
        <ele>277.75</ele>
      </trkpt>
      <trkpt lat="10.526838" lon="107.134144">
        <ele>277.75</ele>
      </trkpt>
      <trkpt lat="10.527036" lon="107.134233">
        <ele>278.25</ele>
      </trkpt>
      <trkpt lat="10.527448" lon="107.134443">
        <ele>279.75</ele>
      </trkpt>
      <trkpt lat="10.527442" lon="107.13445">
        <ele>279.5</ele>
      </trkpt>
      <trkpt lat="10.527448" lon="107.134443">
        <ele>279.75</ele>
      </trkpt>
      <trkpt lat="10.527532" lon="107.134412">
        <ele>280.25</ele>
      </trkpt>
      <trkpt lat="10.527574" lon="107.134353">
        <ele>280.5</ele>
      </trkpt>
      <trkpt lat="10.527609" lon="107.134226">
        <ele>281</ele>
      </trkpt>
      <trkpt lat="10.527691" lon="107.134129">
        <ele>282.25</ele>
      </trkpt>
      <trkpt lat="10.527801" lon="107.134051">
        <ele>284.25</ele>
      </trkpt>
      <trkpt lat="10.52794" lon="107.134022">
        <ele>286</ele>
      </trkpt>
      <trkpt lat="10.528017" lon="107.133966">
        <ele>287.5</ele>
      </trkpt>
      <trkpt lat="10.528068" lon="107.133883">
        <ele>289</ele>
      </trkpt>
      <trkpt lat="10.528109" lon="107.133787">
        <ele>290.5</ele>
      </trkpt>
      <trkpt lat="10.528186" lon="107.133724">
        <ele>292</ele>
      </trkpt>
      <trkpt lat="10.528354" lon="107.133699">
        <ele>294.25</ele>
      </trkpt>
      <trkpt lat="10.528539" lon="107.133657">
        <ele>296.75</ele>
      </trkpt>
      <trkpt lat="10.52873" lon="107.133581">
        <ele>299.75</ele>
      </trkpt>
      <trkpt lat="10.528968" lon="107.133543">
        <ele>302.75</ele>
      </trkpt>
      <trkpt lat="10.529116" lon="107.133549">
        <ele>304.25</ele>
      </trkpt>
      <trkpt lat="10.529321" lon="107.13365">
        <ele>305.5</ele>
      </trkpt>
      <trkpt lat="10.529411" lon="107.133684">
        <ele>306</ele>
      </trkpt>
      <trkpt lat="10.529483" lon="107.133679">
        <ele>306.75</ele>
      </trkpt>
      <trkpt lat="10.52964" lon="107.133632">
        <ele>309</ele>
      </trkpt>
      <trkpt lat="10.529964" lon="107.133516">
        <ele>313.5</ele>
      </trkpt>
      <trkpt lat="10.530193" lon="107.133372">
        <ele>318.5</ele>
      </trkpt>
      <trkpt lat="10.530289" lon="107.133343">
        <ele>320.25</ele>
      </trkpt>
      <trkpt lat="10.530505" lon="107.133343">
        <ele>323.75</ele>
      </trkpt>
      <trkpt lat="10.53073" lon="107.133283">
        <ele>327.5</ele>
      </trkpt>
      <trkpt lat="10.530847" lon="107.133267">
        <ele>329</ele>
      </trkpt>
      <trkpt lat="10.53095" lon="107.133283">
        <ele>329.75</ele>
      </trkpt>
      <trkpt lat="10.531065" lon="107.133312">
        <ele>330.5</ele>
      </trkpt>
      <trkpt lat="10.531135" lon="107.133346">
        <ele>331</ele>
      </trkpt>
      <trkpt lat="10.531258" lon="107.133357">
        <ele>332</ele>
      </trkpt>
      <trkpt lat="10.531386" lon="107.133395">
        <ele>333</ele>
      </trkpt>
      <trkpt lat="10.531492" lon="107.133393">
        <ele>333.75</ele>
      </trkpt>
      <trkpt lat="10.531681" lon="107.133379">
        <ele>335.5</ele>
      </trkpt>
      <trkpt lat="10.531763" lon="107.133352">
        <ele>336.5</ele>
      </trkpt>
      <trkpt lat="10.531849" lon="107.133343">
        <ele>337.5</ele>
      </trkpt>
      <trkpt lat="10.531923" lon="107.133379">
        <ele>339</ele>
      </trkpt>
      <trkpt lat="10.532027" lon="107.13344">
        <ele>341.25</ele>
      </trkpt>
      <trkpt lat="10.532117" lon="107.133453">
        <ele>342.75</ele>
      </trkpt>
      <trkpt lat="10.53239" lon="107.133399">
        <ele>346.25</ele>
      </trkpt>
      <trkpt lat="10.532522" lon="107.133366">
        <ele>348</ele>
      </trkpt>
      <trkpt lat="10.532674" lon="107.133242">
        <ele>351.5</ele>
      </trkpt>
      <trkpt lat="10.532952" lon="107.133139">
        <ele>358.25</ele>
      </trkpt>
      <trkpt lat="10.533049" lon="107.133077">
        <ele>360.25</ele>
      </trkpt>
      <trkpt lat="10.533121" lon="107.133059">
        <ele>361.75</ele>
      </trkpt>
      <trkpt lat="10.533203" lon="107.133081">
        <ele>364</ele>
      </trkpt>
      <trkpt lat="10.533328" lon="107.133079">
        <ele>367</ele>
      </trkpt>
      <trkpt lat="10.53369" lon="107.133021">
        <ele>377.75</ele>
      </trkpt>
      <trkpt lat="10.533886" lon="107.132942">
        <ele>382.75</ele>
      </trkpt>
      <trkpt lat="10.534055" lon="107.132792">
        <ele>385.25</ele>
      </trkpt>
      <trkpt lat="10.534143" lon="107.132732">
        <ele>386.75</ele>
      </trkpt>
      <trkpt lat="10.534229" lon="107.132723">
        <ele>388.75</ele>
      </trkpt>
      <trkpt lat="10.534286" lon="107.132687">
        <ele>389.5</ele>
      </trkpt>
      <trkpt lat="10.53446" lon="107.132479">
        <ele>389.75</ele>
      </trkpt>
      <trkpt lat="10.534562" lon="107.132456">
        <ele>392.25</ele>
      </trkpt>
      <trkpt lat="10.534672" lon="107.132409">
        <ele>394.5</ele>
      </trkpt>
      <trkpt lat="10.534819" lon="107.132317">
        <ele>397.25</ele>
      </trkpt>
      <trkpt lat="10.53504" lon="107.132257">
        <ele>400.75</ele>
      </trkpt>
      <trkpt lat="10.535196" lon="107.132188">
        <ele>400.5</ele>
      </trkpt>
      <trkpt lat="10.535451" lon="107.132165">
        <ele>401</ele>
      </trkpt>
      <trkpt lat="10.535515" lon="107.132145">
        <ele>401</ele>
      </trkpt>
      <trkpt lat="10.535594" lon="107.132064">
        <ele>400.5</ele>
      </trkpt>
      <trkpt lat="10.53563" lon="107.13206">
        <ele>400.5</ele>
      </trkpt>
      <trkpt lat="10.535667" lon="107.132089">
        <ele>401</ele>
      </trkpt>
      <trkpt lat="10.535698" lon="107.132129">
        <ele>401.25</ele>
      </trkpt>
      <trkpt lat="10.535729" lon="107.132156">
        <ele>401.75</ele>
      </trkpt>
      <trkpt lat="10.535764" lon="107.132154">
        <ele>401.75</ele>
      </trkpt>
      <trkpt lat="10.535799" lon="107.132134">
        <ele>401.75</ele>
      </trkpt>
      <trkpt lat="10.535843" lon="107.132071">
        <ele>401.25</ele>
      </trkpt>
      <trkpt lat="10.535936" lon="107.132004">
        <ele>401.75</ele>
      </trkpt>
      <trkpt lat="10.536211" lon="107.131852">
        <ele>402.75</ele>
      </trkpt>
      <trkpt lat="10.53637" lon="107.131809">
        <ele>403.75</ele>
      </trkpt>
      <trkpt lat="10.5365" lon="107.13174">
        <ele>403.75</ele>
      </trkpt>
      <trkpt lat="10.536651" lon="107.131692">
        <ele>404.25</ele>
      </trkpt>
      <trkpt lat="10.536784" lon="107.131657">
        <ele>405.25</ele>
      </trkpt>
      <trkpt lat="10.536911" lon="107.131576">
        <ele>408.25</ele>
      </trkpt>
      <trkpt lat="10.536986" lon="107.131502">
        <ele>410.75</ele>
      </trkpt>
      <trkpt lat="10.537134" lon="107.131392">
        <ele>414.75</ele>
      </trkpt>
      <trkpt lat="10.537266" lon="107.131316">
        <ele>417.75</ele>
      </trkpt>
      <trkpt lat="10.537369" lon="107.131314">
        <ele>418.75</ele>
      </trkpt>
      <trkpt lat="10.537625" lon="107.131211">
        <ele>423.5</ele>
      </trkpt>
      <trkpt lat="10.537711" lon="107.131182">
        <ele>425</ele>
      </trkpt>
      <trkpt lat="10.537878" lon="107.131162">
        <ele>426.75</ele>
      </trkpt>
      <trkpt lat="10.538065" lon="107.131126">
        <ele>428.5</ele>
      </trkpt>
      <trkpt lat="10.538255" lon="107.13105">
        <ele>430</ele>
      </trkpt>
      <trkpt lat="10.538345" lon="107.131027">
        <ele>430.5</ele>
      </trkpt>
      <trkpt lat="10.538453" lon="107.131101">
        <ele>432</ele>
      </trkpt>
      <trkpt lat="10.538514" lon="107.131117">
        <ele>432.75</ele>
      </trkpt>
      <trkpt lat="10.538611" lon="107.13113">
        <ele>434</ele>
      </trkpt>
      <trkpt lat="10.538691" lon="107.13113">
        <ele>435</ele>
      </trkpt>
      <trkpt lat="10.538772" lon="107.131119">
        <ele>436</ele>
      </trkpt>
      <trkpt lat="10.538873" lon="107.131119">
        <ele>437.25</ele>
      </trkpt>
      <trkpt lat="10.539023" lon="107.131097">
        <ele>439</ele>
      </trkpt>
      <trkpt lat="10.53908" lon="107.131081">
        <ele>439.5</ele>
      </trkpt>
      <trkpt lat="10.539118" lon="107.131054">
        <ele>439.5</ele>
      </trkpt>
      <trkpt lat="10.539162" lon="107.131032">
        <ele>439.75</ele>
      </trkpt>
      <trkpt lat="10.539285" lon="107.131047">
        <ele>439.75</ele>
      </trkpt>
      <trkpt lat="10.539373" lon="107.131009">
        <ele>438.75</ele>
      </trkpt>
      <trkpt lat="10.539552" lon="107.130893">
        <ele>435.75</ele>
      </trkpt>
      <trkpt lat="10.539563" lon="107.130816">
        <ele>435.5</ele>
      </trkpt>
      <trkpt lat="10.539565" lon="107.130808">
        <ele>435.5</ele>
      </trkpt>
      <trkpt lat="10.539565" lon="107.130738">
        <ele>438.25</ele>
      </trkpt>
      <trkpt lat="10.539521" lon="107.130685">
        <ele>440.75</ele>
      </trkpt>
      <trkpt lat="10.539466" lon="107.130642">
        <ele>442.75</ele>
      </trkpt>
      <trkpt lat="10.539402" lon="107.130608">
        <ele>444.75</ele>
      </trkpt>
      <trkpt lat="10.539323" lon="107.130606">
        <ele>445.25</ele>
      </trkpt>
      <trkpt lat="10.539166" lon="107.130564">
        <ele>448.25</ele>
      </trkpt>
      <trkpt lat="10.538981" lon="107.130487">
        <ele>450.25</ele>
      </trkpt>
      <trkpt lat="10.538783" lon="107.130382">
        <ele>453.5</ele>
      </trkpt>
      <trkpt lat="10.5386" lon="107.130225">
        <ele>459.75</ele>
      </trkpt>
      <trkpt lat="10.538519" lon="107.130122">
        <ele>464</ele>
      </trkpt>
      <trkpt lat="10.538451" lon="107.130073">
        <ele>466</ele>
      </trkpt>
      <trkpt lat="10.538279" lon="107.130001">
        <ele>468.75</ele>
      </trkpt>
      <trkpt lat="10.538232" lon="107.129945">
        <ele>468.5</ele>
      </trkpt>
      <trkpt lat="10.538118" lon="107.129733">
        <ele>467.75</ele>
      </trkpt>
      <trkpt lat="10.538043" lon="107.129665">
        <ele>467.5</ele>
      </trkpt>
      <trkpt lat="10.537909" lon="107.12958">
        <ele>467</ele>
      </trkpt>
      <trkpt lat="10.537766" lon="107.129477">
        <ele>466.75</ele>
      </trkpt>
      <trkpt lat="10.537416" lon="107.129264">
        <ele>464.25</ele>
      </trkpt>
      <trkpt lat="10.537367" lon="107.129201">
        <ele>463.25</ele>
      </trkpt>
      <trkpt lat="10.537393" lon="107.12918">
        <ele>463.75</ele>
      </trkpt>
      <trkpt lat="10.53743" lon="107.129111">
        <ele>463</ele>
      </trkpt>
      <trkpt lat="10.537538" lon="107.129011">
        <ele>461.25</ele>
      </trkpt>
      <trkpt lat="10.537565" lon="107.128952">
        <ele>459.5</ele>
      </trkpt>
      <trkpt lat="10.537572" lon="107.128846">
        <ele>456.25</ele>
      </trkpt>
      <trkpt lat="10.537532" lon="107.128683">
        <ele>451.25</ele>
      </trkpt>
      <trkpt lat="10.537541" lon="107.12838">
        <ele>442</ele>
      </trkpt>
      <trkpt lat="10.537531" lon="107.128322">
        <ele>440.25</ele>
      </trkpt>
      <trkpt lat="10.537522" lon="107.128274">
        <ele>439</ele>
      </trkpt>
      <trkpt lat="10.537427" lon="107.128227">
        <ele>436.75</ele>
      </trkpt>
      <trkpt lat="10.53728" lon="107.128246">
        <ele>435.75</ele>
      </trkpt>
      <trkpt lat="10.537145" lon="107.128252">
        <ele>434.25</ele>
      </trkpt>
      <trkpt lat="10.537049" lon="107.12824">
        <ele>432.75</ele>
      </trkpt>
      <trkpt lat="10.537003" lon="107.12819">
        <ele>430.5</ele>
      </trkpt>
      <trkpt lat="10.536982" lon="107.127875">
        <ele>419</ele>
      </trkpt>
      <trkpt lat="10.53697" lon="107.127755">
        <ele>414.75</ele>
      </trkpt>
      <trkpt lat="10.536932" lon="107.127608">
        <ele>408.75</ele>
      </trkpt>
      <trkpt lat="10.536909" lon="107.127471">
        <ele>403.5</ele>
      </trkpt>
      <trkpt lat="10.536853" lon="107.127352">
        <ele>399</ele>
      </trkpt>
      <trkpt lat="10.536864" lon="107.127264">
        <ele>396.5</ele>
      </trkpt>
      <trkpt lat="10.536921" lon="107.127147">
        <ele>393.75</ele>
      </trkpt>
      <trkpt lat="10.53692" lon="107.126822">
        <ele>383.5</ele>
      </trkpt>
      <trkpt lat="10.536936" lon="107.126774">
        <ele>382</ele>
      </trkpt>
      <trkpt lat="10.537006" lon="107.126743">
        <ele>381</ele>
      </trkpt>
      <trkpt lat="10.537151" lon="107.126721">
        <ele>380.25</ele>
      </trkpt>
      <trkpt lat="10.537258" lon="107.126721">
        <ele>380.25</ele>
      </trkpt>
      <trkpt lat="10.537403" lon="107.126678">
        <ele>378.5</ele>
      </trkpt>
      <trkpt lat="10.53751" lon="107.126574">
        <ele>373.25</ele>
      </trkpt>
      <trkpt lat="10.53764" lon="107.126516">
        <ele>368.75</ele>
      </trkpt>
      <trkpt lat="10.537755" lon="107.126447">
        <ele>364</ele>
      </trkpt>
      <trkpt lat="10.537863" lon="107.126409">
        <ele>361</ele>
      </trkpt>
      <trkpt lat="10.538032" lon="107.126396">
        <ele>358.25</ele>
      </trkpt>
      <trkpt lat="10.538359" lon="107.126481">
        <ele>358</ele>
      </trkpt>
      <trkpt lat="10.538411" lon="107.126464">
        <ele>357.5</ele>
      </trkpt>
      <trkpt lat="10.538419" lon="107.126423">
        <ele>355.75</ele>
      </trkpt>
      <trkpt lat="10.538411" lon="107.126377">
        <ele>353.75</ele>
      </trkpt>
      <trkpt lat="10.538365" lon="107.126304">
        <ele>350.75</ele>
      </trkpt>
      <trkpt lat="10.538281" lon="107.12622">
        <ele>347.75</ele>
      </trkpt>
      <trkpt lat="10.538174" lon="107.126139">
        <ele>345.5</ele>
      </trkpt>
      <trkpt lat="10.538117" lon="107.126071">
        <ele>343</ele>
      </trkpt>
      <trkpt lat="10.538078" lon="107.125989">
        <ele>339.75</ele>
      </trkpt>
      <trkpt lat="10.538103" lon="107.125944">
        <ele>337.75</ele>
      </trkpt>
      <trkpt lat="10.538165" lon="107.125897">
        <ele>335</ele>
      </trkpt>
      <trkpt lat="10.538165" lon="107.125861">
        <ele>333.5</ele>
      </trkpt>
      <trkpt lat="10.538084" lon="107.125818">
        <ele>332.5</ele>
      </trkpt>
      <trkpt lat="10.538032" lon="107.125768">
        <ele>331</ele>
      </trkpt>
      <trkpt lat="10.538017" lon="107.125697">
        <ele>328.5</ele>
      </trkpt>
      <trkpt lat="10.538026" lon="107.125622">
        <ele>325.5</ele>
      </trkpt>
      <trkpt lat="10.538122" lon="107.125485">
        <ele>319.75</ele>
      </trkpt>
      <trkpt lat="10.538224" lon="107.125392">
        <ele>315.25</ele>
      </trkpt>
      <trkpt lat="10.538423" lon="107.125036">
        <ele>300.75</ele>
      </trkpt>
      <trkpt lat="10.538418" lon="107.124971">
        <ele>298.5</ele>
      </trkpt>
      <trkpt lat="10.538365" lon="107.12489">
        <ele>296.5</ele>
      </trkpt>
      <trkpt lat="10.538294" lon="107.124804">
        <ele>294.5</ele>
      </trkpt>
      <trkpt lat="10.538269" lon="107.124589">
        <ele>288.75</ele>
      </trkpt>
      <trkpt lat="10.538231" lon="107.12451">
        <ele>286.75</ele>
      </trkpt>
      <trkpt lat="10.538158" lon="107.124416">
        <ele>284.75</ele>
      </trkpt>
      <trkpt lat="10.538112" lon="107.1243">
        <ele>282</ele>
      </trkpt>
      <trkpt lat="10.538074" lon="107.124275">
        <ele>281.75</ele>
      </trkpt>
      <trkpt lat="10.537992" lon="107.124264">
        <ele>282.25</ele>
      </trkpt>
      <trkpt lat="10.537913" lon="107.124213">
        <ele>281.75</ele>
      </trkpt>
      <trkpt lat="10.537825" lon="107.124086">
        <ele>278.75</ele>
      </trkpt>
      <trkpt lat="10.53779" lon="107.123964">
        <ele>275.25</ele>
      </trkpt>
      <trkpt lat="10.537799" lon="107.12381">
        <ele>270.25</ele>
      </trkpt>
      <trkpt lat="10.537762" lon="107.12366">
        <ele>265.75</ele>
      </trkpt>
      <trkpt lat="10.537716" lon="107.123578">
        <ele>263.75</ele>
      </trkpt>
      <trkpt lat="10.537639" lon="107.123466">
        <ele>261.25</ele>
      </trkpt>
      <trkpt lat="10.537565" lon="107.123286">
        <ele>257.25</ele>
      </trkpt>
      <trkpt lat="10.53748" lon="107.123185">
        <ele>256.5</ele>
      </trkpt>
      <trkpt lat="10.537358" lon="107.123101">
        <ele>254.75</ele>
      </trkpt>
      <trkpt lat="10.537195" lon="107.123039">
        <ele>253</ele>
      </trkpt>
      <trkpt lat="10.537163" lon="107.122968">
        <ele>251.5</ele>
      </trkpt>
      <trkpt lat="10.537142" lon="107.122857">
        <ele>249.75</ele>
      </trkpt>
      <trkpt lat="10.537206" lon="107.122668">
        <ele>246.75</ele>
      </trkpt>
      <trkpt lat="10.537188" lon="107.122633">
        <ele>246.25</ele>
      </trkpt>
      <trkpt lat="10.537141" lon="107.122607">
        <ele>245.5</ele>
      </trkpt>
      <trkpt lat="10.536936" lon="107.122563">
        <ele>243.5</ele>
      </trkpt>
      <trkpt lat="10.536733" lon="107.122473">
        <ele>241</ele>
      </trkpt>
      <trkpt lat="10.5363" lon="107.122251">
        <ele>233.75</ele>
      </trkpt>
      <trkpt lat="10.536134" lon="107.122157">
        <ele>230.75</ele>
      </trkpt>
      <trkpt lat="10.535882" lon="107.12192">
        <ele>224.75</ele>
      </trkpt>
      <trkpt lat="10.535723" lon="107.121801">
        <ele>221.25</ele>
      </trkpt>
      <trkpt lat="10.535541" lon="107.121613">
        <ele>215.75</ele>
      </trkpt>
      <trkpt lat="10.535446" lon="107.121588">
        <ele>214</ele>
      </trkpt>
      <trkpt lat="10.535293" lon="107.121576">
        <ele>211.75</ele>
      </trkpt>
      <trkpt lat="10.535161" lon="107.121554">
        <ele>210</ele>
      </trkpt>
      <trkpt lat="10.534749" lon="107.121398">
        <ele>203.75</ele>
      </trkpt>
      <trkpt lat="10.534651" lon="107.121335">
        <ele>202</ele>
      </trkpt>
      <trkpt lat="10.534559" lon="107.121242">
        <ele>200.25</ele>
      </trkpt>
      <trkpt lat="10.534479" lon="107.121204">
        <ele>198.75</ele>
      </trkpt>
      <trkpt lat="10.53439" lon="107.121198">
        <ele>197.25</ele>
      </trkpt>
      <trkpt lat="10.534304" lon="107.121217">
        <ele>196</ele>
      </trkpt>
      <trkpt lat="10.534218" lon="107.121173">
        <ele>194.25</ele>
      </trkpt>
      <trkpt lat="10.53407" lon="107.121067">
        <ele>192.5</ele>
      </trkpt>
      <trkpt lat="10.533926" lon="107.121023">
        <ele>192.25</ele>
      </trkpt>
      <trkpt lat="10.5338" lon="107.12097">
        <ele>191.25</ele>
      </trkpt>
      <trkpt lat="10.533649" lon="107.120932">
        <ele>190.25</ele>
      </trkpt>
      <trkpt lat="10.533505" lon="107.120926">
        <ele>189.75</ele>
      </trkpt>
      <trkpt lat="10.533054" lon="107.120832">
        <ele>183.75</ele>
      </trkpt>
      <trkpt lat="10.532697" lon="107.120623">
        <ele>180.25</ele>
      </trkpt>
      <trkpt lat="10.532608" lon="107.120589">
        <ele>179</ele>
      </trkpt>
      <trkpt lat="10.532484" lon="107.120498">
        <ele>177.5</ele>
      </trkpt>
      <trkpt lat="10.53238" lon="107.120373">
        <ele>176.25</ele>
      </trkpt>
      <trkpt lat="10.53232" lon="107.120179">
        <ele>174.75</ele>
      </trkpt>
      <trkpt lat="10.532298" lon="107.120138">
        <ele>174</ele>
      </trkpt>
      <trkpt lat="10.532203" lon="107.11996">
        <ele>172</ele>
      </trkpt>
      <trkpt lat="10.532175" lon="107.119731">
        <ele>173.75</ele>
      </trkpt>
      <trkpt lat="10.532161" lon="107.119512">
        <ele>175.5</ele>
      </trkpt>
      <trkpt lat="10.532189" lon="107.119289">
        <ele>178.25</ele>
      </trkpt>
      <trkpt lat="10.532224" lon="107.119078">
        <ele>178.75</ele>
      </trkpt>
      <trkpt lat="10.53227" lon="107.118665">
        <ele>174</ele>
      </trkpt>
      <trkpt lat="10.532253" lon="107.118514">
        <ele>172.25</ele>
      </trkpt>
      <trkpt lat="10.532189" lon="107.118385">
        <ele>170.5</ele>
      </trkpt>
      <trkpt lat="10.532087" lon="107.118256">
        <ele>168.25</ele>
      </trkpt>
      <trkpt lat="10.531893" lon="107.118105">
        <ele>165.5</ele>
      </trkpt>
      <trkpt lat="10.531716" lon="107.117893">
        <ele>161.5</ele>
      </trkpt>
      <trkpt lat="10.531677" lon="107.117728">
        <ele>158.25</ele>
      </trkpt>
      <trkpt lat="10.531688" lon="107.117502">
        <ele>154</ele>
      </trkpt>
      <trkpt lat="10.5317" lon="107.117393">
        <ele>151.25</ele>
      </trkpt>
      <trkpt lat="10.531687" lon="107.117305">
        <ele>149.25</ele>
      </trkpt>
      <trkpt lat="10.531349" lon="107.117282">
        <ele>147.75</ele>
      </trkpt>
      <trkpt lat="10.530684" lon="107.117302">
        <ele>146</ele>
      </trkpt>
      <trkpt lat="10.530568" lon="107.117536">
        <ele>150.5</ele>
      </trkpt>
      <trkpt lat="10.530556" lon="107.117587">
        <ele>151.25</ele>
      </trkpt>
      <trkpt lat="10.53052" lon="107.117925">
        <ele>156.5</ele>
      </trkpt>
      <trkpt lat="10.530504" lon="107.117975">
        <ele>157.25</ele>
      </trkpt>
      <trkpt lat="10.530335" lon="107.118309">
        <ele>161.25</ele>
      </trkpt>
      <trkpt lat="10.530321" lon="107.118361">
        <ele>161.5</ele>
      </trkpt>
      <trkpt lat="10.530292" lon="107.118587">
        <ele>160.75</ele>
      </trkpt>
      <trkpt lat="10.530281" lon="107.118629">
        <ele>160.5</ele>
      </trkpt>
      <trkpt lat="10.530193" lon="107.118818">
        <ele>163.46547586480233</ele>
      </trkpt>
      <trkpt lat="10.52996250300481" lon="107.11878414234161">
        <ele>161.64662090249013</ele>
      </trkpt>
      <trkpt lat="10.52970145087275" lon="107.11871586484864">
        <ele>158.8919695785371</ele>
      </trkpt>
      <trkpt lat="10.529447857160179" lon="107.11890552454804">
        <ele>155.76846250428855</ele>
      </trkpt>
      <trkpt lat="10.529328518870571" lon="107.119148288963">
        <ele>153.43313195724113</ele>
      </trkpt>
      <trkpt lat="10.529276308354653" lon="107.11932277588687">
        <ele>152.55302642891237</ele>
      </trkpt>
      <trkpt lat="10.528895917184371" lon="107.11938346698912">
        <ele>153.63748845873442</ele>
      </trkpt>
      <trkpt lat="10.528466462870538" lon="107.11924790569671">
        <ele>154.62985102767215</ele>
      </trkpt>
      <trkpt lat="10.52846331489016" lon="107.1192469120071">
        <ele>154.6326810348788</ele>
      </trkpt>
      <trkpt lat="10.528068005366379" lon="107.119353121438">
        <ele>154.7018291177061</ele>
      </trkpt>
      <trkpt lat="10.527642031668199" lon="107.11949960354197">
        <ele>160.95216906043947</ele>
      </trkpt>
      <trkpt lat="10.527545061777204" lon="107.11953294915395">
        <ele>162.65758581520234</ele>
      </trkpt>
      <trkpt lat="10.527239255430842" lon="107.1197226088533">
        <ele>168.82101663434995</ele>
      </trkpt>
      <trkpt lat="10.527254172820278" lon="107.11999571882137">
        <ele>184.2236855119755</ele>
      </trkpt>
      <trkpt lat="10.527457891297669" lon="107.1204034472006">
        <ele>208.59940287601236</ele>
      </trkpt>
      <trkpt lat="10.527485392270378" lon="107.12045848848686">
        <ele>211.4685510173909</ele>
      </trkpt>
      <trkpt lat="10.52764681086904" lon="107.12088536237707">
        <ele>229.8055211183806</ele>
      </trkpt>
      <trkpt lat="10.527671859442677" lon="107.12095160370342">
        <ele>231.6395888169787</ele>
      </trkpt>
      <trkpt lat="10.527761363644956" lon="107.12136126865346">
        <ele>236.4635368690775</ele>
      </trkpt>
      <trkpt lat="10.527895619899567" lon="107.12160403306831">
        <ele>237.8381562031925</ele>
      </trkpt>
      <trkpt lat="10.528311335259138" lon="107.12177835932167">
        <ele>239.43311071465848</ele>
      </trkpt>
      <trkpt lat="10.528727050618707" lon="107.12195268557502">
        <ele>239.25513160432382</ele>
      </trkpt>
      <trkpt lat="10.528745908156665" lon="107.1219605933029">
        <ele>239.34210044205838</ele>
      </trkpt>
      <trkpt lat="10.52885032936031" lon="107.12233991269983">
        <ele>243.61801490371613</ele>
      </trkpt>
      <trkpt lat="10.52890999860297" lon="107.1227647504274">
        <ele>249.8528939727491</ele>
      </trkpt>
      <trkpt lat="10.5290551941578" lon="107.12319761191696">
        <ele>258.29162016622826</ele>
      </trkpt>
      <trkpt lat="10.529126299512072" lon="107.12340959340361">
        <ele>261.3795021774411</ele>
      </trkpt>
      <trkpt lat="10.529139649867357" lon="107.12386675296099">
        <ele>262.9114891928038</ele>
      </trkpt>
      <trkpt lat="10.529148675459979" lon="107.12417581858807">
        <ele>264.9018956878405</ele>
      </trkpt>
      <trkpt lat="10.529319883486663" lon="107.12459873061403">
        <ele>268.39191852352525</ele>
      </trkpt>
      <trkpt lat="10.52935751755804" lon="107.12469169296912">
        <ele>268.8334543079739</ele>
      </trkpt>
      <trkpt lat="10.529302703116162" lon="107.12514564349199">
        <ele>271.8688095909873</ele>
      </trkpt>
      <trkpt lat="10.529287545612377" lon="107.12527117166547">
        <ele>274.3871517227506</ele>
      </trkpt>
      <trkpt lat="10.529257711029544" lon="107.12570359577785">
        <ele>286.50785479802374</ele>
      </trkpt>
      <trkpt lat="10.529056616882846" lon="107.1261126720061">
        <ele>295.91578844062724</ele>
      </trkpt>
      <trkpt lat="10.528944447727469" lon="107.1263408523672">
        <ele>298.35094209099276</ele>
      </trkpt>
      <trkpt lat="10.528724884514254" lon="107.12673998327162">
        <ele>300.7200597478082</ele>
      </trkpt>
      <trkpt lat="10.528593890797737" lon="107.12697810895662">
        <ele>300.8309231597002</ele>
      </trkpt>
      <trkpt lat="10.528479455294917" lon="107.12742041042246">
        <ele>300.5097608100314</ele>
      </trkpt>
      <trkpt lat="10.528444717515967" lon="107.12755467444168">
        <ele>299.6865391945199</ele>
      </trkpt>
      <trkpt lat="10.52817375109135" lon="107.12791966660117">
        <ele>297.58767188118895</ele>
      </trkpt>
      <trkpt lat="10.528168746753138" lon="107.12792640745187">
        <ele>297.5870516861822</ele>
      </trkpt>
      <trkpt lat="10.527974821204367" lon="107.1281995174179">
        <ele>294.0608869120398</ele>
      </trkpt>
      <trkpt lat="10.527907693101042" lon="107.1284422818328">
        <ele>289.37851444008874</ele>
      </trkpt>
      <trkpt lat="10.527600152009297" lon="107.1287759423182">
        <ele>286.6402639746409</ele>
      </trkpt>
      <trkpt lat="10.527572052367432" lon="107.12880642845613">
        <ele>286.77554663263413</ele>
      </trkpt>
      <trkpt lat="10.527393043827061" lon="107.12913264313767">
        <ele>285.77005327381266</ele>
      </trkpt>
      <trkpt lat="10.527273704742" lon="107.12938299394125">
        <ele>283.373616912695</ele>
      </trkpt>
      <trkpt lat="10.526908228507011" lon="107.12963334474296">
        <ele>276.69356064236854</ele>
      </trkpt>
      <trkpt lat="10.52673191745067" lon="107.13005407875922">
        <ele>272.7968712393904</ele>
      </trkpt>
      <trkpt lat="10.526714302165402" lon="107.13009611440845">
        <ele>272.2066260942511</ele>
      </trkpt>
      <trkpt lat="10.526662091206745" lon="107.13046026103177">
        <ele>266.44825415499605</ele>
      </trkpt>
      <trkpt lat="10.526714302165402" lon="107.13085475320423">
        <ele>261.5484069083818</ele>
      </trkpt>
      <trkpt lat="10.526885852396518" lon="107.13102165373942">
        <ele>259.38783638337975</ele>
      </trkpt>
      <trkpt lat="10.527045358670478" lon="107.13103833956012">
        <ele>259.1463536574194</ele>
      </trkpt>
      <trkpt lat="10.527006801645783" lon="107.13111350565566">
        <ele>258.73669931622123</ele>
      </trkpt>
      <trkpt lat="10.5271" lon="107.131066">
        <ele>263.25</ele>
      </trkpt>
      <trkpt lat="10.527091" lon="107.131071">
        <ele>263.25</ele>
      </trkpt>
      <trkpt lat="10.526909" lon="107.131161">
        <ele>262.75</ele>
      </trkpt>
      <trkpt lat="10.52677" lon="107.13121">
        <ele>262</ele>
      </trkpt>
      <trkpt lat="10.526661" lon="107.131226">
        <ele>261.25</ele>
      </trkpt>
      <trkpt lat="10.526516" lon="107.13122">
        <ele>260.5</ele>
      </trkpt>
      <trkpt lat="10.526366" lon="107.131173">
        <ele>259.25</ele>
      </trkpt>
      <trkpt lat="10.526276" lon="107.131133">
        <ele>258.5</ele>
      </trkpt>
      <trkpt lat="10.525974" lon="107.130977">
        <ele>254.25</ele>
      </trkpt>
      <trkpt lat="10.525635" lon="107.130818">
        <ele>251.5</ele>
      </trkpt>
      <trkpt lat="10.525372" lon="107.130682">
        <ele>250.75</ele>
      </trkpt>
      <trkpt lat="10.52515" lon="107.130545">
        <ele>248</ele>
      </trkpt>
      <trkpt lat="10.524974" lon="107.130387">
        <ele>244</ele>
      </trkpt>
      <trkpt lat="10.524507" lon="107.130083">
        <ele>240.25</ele>
      </trkpt>
      <trkpt lat="10.524109" lon="107.129835">
        <ele>234.75</ele>
      </trkpt>
      <trkpt lat="10.523847" lon="107.129681">
        <ele>227.75</ele>
      </trkpt>
      <trkpt lat="10.523679" lon="107.129644">
        <ele>225.5</ele>
      </trkpt>
      <trkpt lat="10.523215" lon="107.129729">
        <ele>226.5</ele>
      </trkpt>
      <trkpt lat="10.522906" lon="107.129754">
        <ele>226.25</ele>
      </trkpt>
      <trkpt lat="10.522542" lon="107.129738">
        <ele>224</ele>
      </trkpt>
      <trkpt lat="10.522265" lon="107.129708">
        <ele>222.5</ele>
      </trkpt>
      <trkpt lat="10.522133" lon="107.129649">
        <ele>221</ele>
      </trkpt>
      <trkpt lat="10.522004" lon="107.129539">
        <ele>218.5</ele>
      </trkpt>
      <trkpt lat="10.521883" lon="107.129405">
        <ele>216.5</ele>
      </trkpt>
      <trkpt lat="10.52125" lon="107.128542">
        <ele>204.75</ele>
      </trkpt>
      <trkpt lat="10.520936" lon="107.12827">
        <ele>210.5</ele>
      </trkpt>
      <trkpt lat="10.520881" lon="107.128206">
        <ele>211.5</ele>
      </trkpt>
      <trkpt lat="10.520854" lon="107.128118">
        <ele>211.25</ele>
      </trkpt>
      <trkpt lat="10.520845" lon="107.128052">
        <ele>210.75</ele>
      </trkpt>
      <trkpt lat="10.520846" lon="107.127985">
        <ele>209.75</ele>
      </trkpt>
      <trkpt lat="10.52092" lon="107.127646">
        <ele>203</ele>
      </trkpt>
      <trkpt lat="10.520942" lon="107.12753">
        <ele>200.75</ele>
      </trkpt>
      <trkpt lat="10.520943" lon="107.12745">
        <ele>200</ele>
      </trkpt>
      <trkpt lat="10.52093" lon="107.127386">
        <ele>199.75</ele>
      </trkpt>
      <trkpt lat="10.520898" lon="107.127317">
        <ele>200.25</ele>
      </trkpt>
      <trkpt lat="10.520856" lon="107.12725">
        <ele>200.75</ele>
      </trkpt>
      <trkpt lat="10.520799" lon="107.127187">
        <ele>200.75</ele>
      </trkpt>
      <trkpt lat="10.520656" lon="107.127074">
        <ele>199.25</ele>
      </trkpt>
      <trkpt lat="10.5206" lon="107.12705">
        <ele>198.75</ele>
      </trkpt>
      <trkpt lat="10.520523" lon="107.127034">
        <ele>198.5</ele>
      </trkpt>
      <trkpt lat="10.520438" lon="107.127029">
        <ele>198</ele>
      </trkpt>
      <trkpt lat="10.520341" lon="107.127037">
        <ele>197.75</ele>
      </trkpt>
      <trkpt lat="10.520181" lon="107.127068">
        <ele>197.5</ele>
      </trkpt>
      <trkpt lat="10.520132" lon="107.127089">
        <ele>197.25</ele>
      </trkpt>
      <trkpt lat="10.520181" lon="107.127068">
        <ele>197.5</ele>
      </trkpt>
      <trkpt lat="10.520063" lon="107.126843">
        <ele>196.5</ele>
      </trkpt>
      <trkpt lat="10.520048" lon="107.126797">
        <ele>196.25</ele>
      </trkpt>
      <trkpt lat="10.520048" lon="107.126754">
        <ele>196</ele>
      </trkpt>
      <trkpt lat="10.520099" lon="107.1266">
        <ele>196.25</ele>
      </trkpt>
      <trkpt lat="10.520102" lon="107.126535">
        <ele>196.75</ele>
      </trkpt>
      <trkpt lat="10.520075" lon="107.126467">
        <ele>197.25</ele>
      </trkpt>
      <trkpt lat="10.520039" lon="107.126424">
        <ele>197.75</ele>
      </trkpt>
      <trkpt lat="10.519966" lon="107.126393">
        <ele>197.75</ele>
      </trkpt>
      <trkpt lat="10.519842" lon="107.126372">
        <ele>196.75</ele>
      </trkpt>
      <trkpt lat="10.519811" lon="107.126338">
        <ele>197</ele>
      </trkpt>
      <trkpt lat="10.519781" lon="107.126255">
        <ele>197.75</ele>
      </trkpt>
      <trkpt lat="10.51976" lon="107.126215">
        <ele>198.25</ele>
      </trkpt>
      <trkpt lat="10.519678" lon="107.126144">
        <ele>199</ele>
      </trkpt>
      <trkpt lat="10.519627" lon="107.126045">
        <ele>200.5</ele>
      </trkpt>
      <trkpt lat="10.519612" lon="107.125888">
        <ele>203.25</ele>
      </trkpt>
      <trkpt lat="10.519587" lon="107.125857">
        <ele>204</ele>
      </trkpt>
      <trkpt lat="10.519536" lon="107.125833">
        <ele>204.5</ele>
      </trkpt>
      <trkpt lat="10.519487" lon="107.125833">
        <ele>204.75</ele>
      </trkpt>
      <trkpt lat="10.51942" lon="107.125802">
        <ele>204.75</ele>
      </trkpt>
      <trkpt lat="10.519364" lon="107.12571">
        <ele>204.25</ele>
      </trkpt>
      <trkpt lat="10.519334" lon="107.12568">
        <ele>204</ele>
      </trkpt>
      <trkpt lat="10.519294" lon="107.125662">
        <ele>204</ele>
      </trkpt>
      <trkpt lat="10.519248" lon="107.125653">
        <ele>204.25</ele>
      </trkpt>
      <trkpt lat="10.51916" lon="107.125649">
        <ele>204.5</ele>
      </trkpt>
      <trkpt lat="10.519128" lon="107.125635">
        <ele>204.75</ele>
      </trkpt>
      <trkpt lat="10.51911" lon="107.125613">
        <ele>204.5</ele>
      </trkpt>
      <trkpt lat="10.519096" lon="107.125572">
        <ele>204.5</ele>
      </trkpt>
      <trkpt lat="10.519066" lon="107.125521">
        <ele>204.25</ele>
      </trkpt>
      <trkpt lat="10.519006" lon="107.125481">
        <ele>204.5</ele>
      </trkpt>
      <trkpt lat="10.518858" lon="107.125428">
        <ele>205.25</ele>
      </trkpt>
      <trkpt lat="10.518812" lon="107.125418">
        <ele>205.75</ele>
      </trkpt>
      <trkpt lat="10.518756" lon="107.125414">
        <ele>206</ele>
      </trkpt>
      <trkpt lat="10.518692" lon="107.125423">
        <ele>210.98945018573315</ele>
      </trkpt>
      <trkpt lat="10.518248801362317" lon="107.12550025371117">
        <ele>215.30131193711787</ele>
      </trkpt>
      <trkpt lat="10.518174076677283" lon="107.12551327892999">
        <ele>214.94846738069896</ele>
      </trkpt>
      <trkpt lat="10.51790736267408" lon="107.12551056620981">
        <ele>212.28147502823168</ele>
      </trkpt>
      <trkpt lat="10.517723329877299" lon="107.12528541040109">
        <ele>213.45335972461817</ele>
      </trkpt>
      <trkpt lat="10.517541964115395" lon="107.12517147613738">
        <ele>214.56148149441174</ele>
      </trkpt>
      <trkpt lat="10.517292581370114" lon="107.12510540580325">
        <ele>214.88584421503302</ele>
      </trkpt>
      <trkpt lat="10.516977857922683" lon="107.12495078073005">
        <ele>216.01529646491193</ele>
      </trkpt>
      <trkpt lat="10.516713810037459" lon="107.12466323234906">
        <ele>215.61152540618656</ele>
      </trkpt>
      <trkpt lat="10.516305735587792" lon="107.12461711609933">
        <ele>217.7818830519091</ele>
      </trkpt>
      <trkpt lat="10.515967334943852" lon="107.1245334028091">
        <ele>211.57499748854994</ele>
      </trkpt>
      <trkpt lat="10.515783300990208" lon="107.12450356288173">
        <ele>207.6401184740015</ele>
      </trkpt>
      <trkpt lat="10.515697951873051" lon="107.1243380869264">
        <ele>202.97231519340886</ele>
      </trkpt>
      <trkpt lat="10.515513917758781" lon="107.12425670530882">
        <ele>198.44419936902293</ele>
      </trkpt>
      <trkpt lat="10.515070109089313" lon="107.12418316437719">
        <ele>189.0333125730517</ele>
      </trkpt>
      <trkpt lat="10.515039162581274" lon="107.12417803641284">
        <ele>188.2290202103796</ele>
      </trkpt>
      <trkpt lat="10.514599980920867" lon="107.12407988040339">
        <ele>175.43075852766054</ele>
      </trkpt>
      <trkpt lat="10.51450531094622" lon="107.12405872189936">
        <ele>171.9977508315511</ele>
      </trkpt>
      <trkpt lat="10.514105235099251" lon="107.12390138410603">
        <ele>156.5250420537465</ele>
      </trkpt>
      <trkpt lat="10.513875858046504" lon="107.12358670851779">
        <ele>145.65355143164757</ele>
      </trkpt>
      <trkpt lat="10.513742499216988" lon="107.12316623682779">
        <ele>140.42974698032515</ele>
      </trkpt>
      <trkpt lat="10.51359969766977" lon="107.12273257383568">
        <ele>142.35476158903947</ele>
      </trkpt>
      <trkpt lat="10.51351590495969" lon="107.12247811022462">
        <ele>140.25369539912873</ele>
      </trkpt>
      <trkpt lat="10.513507903422038" lon="107.12226109257784">
        <ele>137.2707522559666</ele>
      </trkpt>
      <trkpt lat="10.513371877252908" lon="107.12194641699108">
        <ele>127.88139547923326</ele>
      </trkpt>
      <trkpt lat="10.51314516683793" lon="107.12171854846224">
        <ele>117.42286151776815</ele>
      </trkpt>
      <trkpt lat="10.513059816991387" lon="107.12152865802125">
        <ele>110.38335611043907</ele>
      </trkpt>
      <trkpt lat="10.51318250738818" lon="107.12126281140445">
        <ele>104.61287064424198</ele>
      </trkpt>
      <trkpt lat="10.512909598024292" lon="107.12089933797667">
        <ele>99.14293614458319</ele>
      </trkpt>
      <trkpt lat="10.512777668742999" lon="107.12072362840257">
        <ele>99.11223283392984</ele>
      </trkpt>
      <trkpt lat="10.51258829851379" lon="107.12053645068318">
        <ele>98.97875766926514</ele>
      </trkpt>
      <trkpt lat="10.512873687406184" lon="107.12043336730011">
        <ele>97.34529258704995</ele>
      </trkpt>
      <trkpt lat="10.513025716895669" lon="107.12030858215434">
        <ele>93.6232505733152</ele>
      </trkpt>
      <trkpt lat="10.513076416787095" lon="107.11985416113927">
        <ele>87.06959279721661</ele>
      </trkpt>
      <trkpt lat="10.513111066751662" lon="107.11954359495013">
        <ele>77.46739702241949</ele>
      </trkpt>
      <trkpt lat="10.513161743217267" lon="107.11933742818672">
        <ele>68.27375570259464</ele>
      </trkpt>
      <trkpt lat="10.513057838912657" lon="107.11889246798106">
        <ele>50.69154022708628</ele>
      </trkpt>
      <trkpt lat="10.513015442007529" lon="107.11871090730659">
        <ele>42.988941886797065</ele>
      </trkpt>
      <trkpt lat="10.512970099885507" lon="107.11846947517415">
        <ele>33.326791159576764</ele>
      </trkpt>
      <trkpt lat="10.513194143246864" lon="107.11833112642466">
        <ele>29.726204930619133</ele>
      </trkpt>
      <trkpt lat="10.513643796715321" lon="107.11833362550253">
        <ele>30.145682184796016</ele>
      </trkpt>
      <trkpt lat="10.513682237151315" lon="107.11833383914626">
        <ele>30.144302512951203</ele>
      </trkpt>
      <trkpt lat="10.513970292218247" lon="107.11838809354612">
        <ele>29.36462592750173</ele>
      </trkpt>
      <trkpt lat="10.51414632573163" lon="107.11858612214763">
        <ele>29.549928570181404</ele>
      </trkpt>
      <trkpt lat="10.514282351559473" lon="107.11890079773576">
        <ele>31.264327978960075</ele>
      </trkpt>
      <trkpt lat="10.514509061139378" lon="107.11875159810285">
        <ele>27.80693319946883</ele>
      </trkpt>
      <trkpt lat="10.514780885273447" lon="107.11838728245786">
        <ele>23.26633678562575</ele>
      </trkpt>
      <trkpt lat="10.514794448256907" lon="107.11836910450216">
        <ele>23.017028156272655</ele>
      </trkpt>
      <trkpt lat="10.515137096230418" lon="107.11807294963313">
        <ele>17.71203540004826</ele>
      </trkpt>
      <trkpt lat="10.515469238836815" lon="107.11778587468245">
        <ele>15.112373825854867</ele>
      </trkpt>
    </trkseg>
  </trk>
</gpx>
